{"type":"FeatureCollection","_quelle":"Quelle: Deutscher Wetterdienst (dwd:Warngebiete_Kreise), vereinfacht","features":[{"type":"Feature","properties":{"name":"Kreis Saarlouis"},"geometry":{"type":"MultiPolygon","coordinates":[[[[6.9264,49.4884],[6.9104,49.5018],[6.8755,49.4796],[6.8546,49.4829],[6.8208,49.4689],[6.8062,49.4712],[6.7984,49.4573],[6.8023,49.4507],[6.7866,49.437],[6.799,49.4159],[6.7922,49.4084],[6.7478,49.3952],[6.6941,49.373],[6.6973,49.3818],[6.6644,49.3992],[6.6457,49.4122],[6.6002,49.3979],[6.5841,49.3999],[6.5714,49.4175],[6.5575,49.4192],[6.5389,49.4117],[6.5403,49.4014],[6.5634,49.3882],[6.5868,49.3846],[6.5831,49.3687],[6.5942,49.3714],[6.6016,49.3661],[6.5889,49.3502],[6.5741,49.3586],[6.5631,49.3559],[6.5809,49.3345],[6.5951,49.3299],[6.5888,49.3218],[6.6153,49.3015],[6.6394,49.2952],[6.6536,49.2812],[6.6698,49.2802],[6.6606,49.2605],[6.6639,49.2546],[6.676,49.2571],[6.6905,49.2479],[6.6895,49.221],[6.6957,49.2157],[6.7216,49.2202],[6.7388,49.2269],[6.7667,49.2228],[6.8099,49.2406],[6.8346,49.2589],[6.8193,49.2687],[6.8248,49.2748],[6.8552,49.2722],[6.8566,49.2855],[6.8797,49.3005],[6.8755,49.3271],[6.8799,49.3352],[6.8626,49.3467],[6.8777,49.3465],[6.9207,49.3673],[6.9448,49.3774],[6.9178,49.4138],[6.9228,49.4218],[6.9319,49.4286],[6.9527,49.4244],[6.9896,49.4366],[6.9716,49.4621],[6.9696,49.4862],[6.9326,49.4727],[6.9251,49.4689],[6.9126,49.479],[6.9264,49.4884]]]]}},{"type":"Feature","properties":{"name":"Kreis Neunkirchen"},"geometry":{"type":"MultiPolygon","coordinates":[[[[7.2089,49.4416],[7.1931,49.4276],[7.1487,49.416],[7.1211,49.4296],[7.101,49.4207],[7.0909,49.4148],[7.0602,49.4095],[7.047,49.4265],[7.0321,49.4222],[6.9951,49.4379],[6.9527,49.4244],[6.9319,49.4286],[6.9228,49.4218],[6.9178,49.4138],[6.9448,49.3774],[6.9569,49.3741],[6.9648,49.3566],[7.0234,49.3592],[7.0121,49.3507],[7.0531,49.3482],[7.0626,49.3427],[7.062,49.3302],[7.072,49.331],[7.0739,49.3436],[7.0853,49.347],[7.0964,49.3372],[7.1138,49.3367],[7.1068,49.3321],[7.1146,49.324],[7.1076,49.3149],[7.1605,49.2977],[7.183,49.3043],[7.1827,49.2877],[7.2416,49.3042],[7.2659,49.3234],[7.2389,49.3341],[7.237,49.3603],[7.2195,49.364],[7.2617,49.3975],[7.2931,49.4076],[7.29,49.4159],[7.2534,49.4313],[7.2353,49.4271],[7.2089,49.4416]]]]}},{"type":"Feature","properties":{"name":"Saarpfalz-Kreis"},"geometry":{"type":"MultiPolygon","coordinates":[[[[7.3699,49.3746],[7.2907,49.3892],[7.2981,49.3981],[7.2931,49.4076],[7.2617,49.3975],[7.2195,49.364],[7.237,49.3603],[7.2389,49.3341],[7.2659,49.3234],[7.2416,49.3042],[7.1827,49.2877],[7.183,49.3043],[7.1605,49.2977],[7.117,49.3121],[7.0834,49.2943],[7.079,49.2747],[7.0623,49.2716],[7.0623,49.2616],[7.0681,49.2564],[7.0773,49.2594],[7.086,49.2463],[7.113,49.2541],[7.1299,49.2404],[7.1232,49.2229],[7.1352,49.2147],[7.1067,49.1888],[7.1119,49.1762],[7.1268,49.1771],[7.1294,49.1727],[7.1012,49.1555],[7.1122,49.1518],[7.1068,49.1391],[7.1262,49.1411],[7.1339,49.1303],[7.1589,49.1209],[7.1643,49.1271],[7.1855,49.1305],[7.1982,49.1151],[7.2068,49.1234],[7.245,49.13],[7.2849,49.1227],[7.2831,49.1167],[7.2932,49.115],[7.3098,49.1299],[7.3299,49.1447],[7.3615,49.1433],[7.3635,49.1577],[7.3346,49.1766],[7.3376,49.1842],[7.3211,49.1882],[7.304,49.2054],[7.2977,49.2039],[7.3027,49.2229],[7.2893,49.2304],[7.3114,49.2568],[7.3245,49.2482],[7.3235,49.2571],[7.345,49.2723],[7.3356,49.2784],[7.3532,49.2832],[7.359,49.2787],[7.3726,49.2804],[7.3852,49.2935],[7.38,49.3054],[7.3919,49.3087],[7.3943,49.3171],[7.3775,49.3192],[7.4018,49.3368],[7.4035,49.346],[7.3909,49.3534],[7.4007,49.3547],[7.3938,49.3625],[7.4024,49.3681],[7.3933,49.3707],[7.3679,49.3637],[7.3699,49.3746]]]]}},{"type":"Feature","properties":{"name":"Eifelkreis Bitburg-Prüm"},"geometry":{"type":"MultiPolygon","coordinates":[[[[6.4208,50.3142],[6.4266,50.3227],[6.4039,50.3233],[6.383,50.322],[6.3744,50.3128],[6.359,50.3128],[6.3585,50.307],[6.3332,50.3232],[6.3062,50.3193],[6.3082,50.3102],[6.2974,50.3091],[6.2867,50.2939],[6.2929,50.2789],[6.2782,50.2664],[6.2723,50.2666],[6.2268,50.2595],[6.2088,50.2535],[6.1981,50.2378],[6.1771,50.2353],[6.1777,50.227],[6.1676,50.223],[6.188,50.2056],[6.1843,50.1928],[6.191,50.1826],[6.1625,50.1781],[6.1603,50.1723],[6.1473,50.1784],[6.1411,50.1672],[6.1469,50.1586],[6.1336,50.1548],[6.1411,50.1473],[6.1531,50.15],[6.1504,50.1372],[6.138,50.1318],[6.1294,50.1192],[6.1359,50.1039],[6.1259,50.1006],[6.1336,50.0938],[6.1211,50.0925],[6.117,50.0742],[6.1292,50.073],[6.1134,50.0627],[6.1339,50.0423],[6.1329,50.031],[6.1464,50.0229],[6.1334,50.0161],[6.138,50.0122],[6.149,50.0066],[6.1403,49.9956],[6.1715,49.9826],[6.1655,49.9713],[6.1795,49.9538],[6.1857,49.9549],[6.1843,49.9633],[6.1936,49.9671],[6.1985,49.9489],[6.2069,49.9572],[6.2112,49.9501],[6.2232,49.95],[6.218,49.9447],[6.226,49.9295],[6.22,49.9239],[6.2335,49.9144],[6.2278,49.91],[6.2334,49.9008],[6.246,49.8954],[6.2589,49.8838],[6.2875,49.8748],[6.2967,49.8669],[6.3128,49.869],[6.3218,49.8531],[6.3258,49.8373],[6.3364,49.8392],[6.3437,49.8497],[6.3637,49.8508],[6.3932,49.8279],[6.4,49.8198],[6.4308,49.8113],[6.4573,49.8133],[6.4755,49.8218],[6.5033,49.839],[6.5338,49.8413],[6.5253,49.8531],[6.5425,49.8632],[6.58,49.8682],[6.5849,49.8872],[6.5978,49.8957],[6.6054,49.8916],[6.5994,49.8832],[6.605,49.8769],[6.6181,49.8823],[6.6328,49.8786],[6.6774,49.8963],[6.6785,49.908],[6.6899,49.9096],[6.6942,49.916],[6.7119,49.9062],[6.714,49.9195],[6.6976,49.9249],[6.7003,49.9311],[6.7078,49.9402],[6.6859,49.9571],[6.6815,49.9642],[6.7162,49.9837],[6.7272,49.9836],[6.7133,50.0088],[6.6986,50.0265],[6.7043,50.0423],[6.7185,50.0425],[6.6985,50.0594],[6.6977,50.0766],[6.6992,50.0835],[6.6895,50.0941],[6.6632,50.0948],[6.6602,50.1002],[6.6384,50.1175],[6.6296,50.1132],[6.6094,50.1074],[6.5812,50.1101],[6.59,50.1174],[6.5765,50.1252],[6.5876,50.1342],[6.5493,50.146],[6.5521,50.1551],[6.562,50.1578],[6.5544,50.1662],[6.5627,50.1807],[6.5516,50.1858],[6.5609,50.1891],[6.5687,50.1863],[6.5868,50.1965],[6.5963,50.2048],[6.589,50.2095],[6.5914,50.2252],[6.563,50.2298],[6.5616,50.2363],[6.5693,50.2462],[6.5535,50.2537],[6.5336,50.2506],[6.5113,50.2858],[6.4804,50.2833],[6.473,50.3131],[6.456,50.3112],[6.4583,50.3053],[6.4431,50.2958],[6.4432,50.3057],[6.4208,50.3142]]]]}},{"type":"Feature","properties":{"name":"Kreis Vulkaneifel"},"geometry":{"type":"MultiPolygon","coordinates":[[[[6.4194,50.3741],[6.4219,50.3813],[6.4141,50.3908],[6.3855,50.3842],[6.4048,50.3506],[6.4266,50.3227],[6.4208,50.3142],[6.4432,50.3057],[6.4431,50.2958],[6.4583,50.3053],[6.456,50.3112],[6.473,50.3131],[6.4804,50.2833],[6.5113,50.2858],[6.5336,50.2506],[6.5535,50.2537],[6.5693,50.2462],[6.5616,50.2363],[6.563,50.2298],[6.5914,50.2252],[6.589,50.2095],[6.5963,50.2048],[6.5868,50.1965],[6.5687,50.1863],[6.5609,50.1891],[6.5516,50.1858],[6.5627,50.1807],[6.5544,50.1662],[6.562,50.1578],[6.5521,50.1551],[6.5493,50.146],[6.5876,50.1342],[6.5765,50.1252],[6.59,50.1174],[6.5812,50.1101],[6.6094,50.1074],[6.6296,50.1132],[6.6384,50.1175],[6.6602,50.1002],[6.6632,50.0948],[6.6895,50.0941],[6.6992,50.0835],[6.7061,50.0895],[6.7308,50.0906],[6.7554,50.1188],[6.7617,50.1191],[6.7751,50.1082],[6.8142,50.1219],[6.8588,50.1302],[6.8653,50.1228],[6.8771,50.1168],[6.8767,50.109],[6.8984,50.1009],[6.9045,50.0782],[6.9093,50.0742],[6.9435,50.088],[6.9531,50.0799],[6.9711,50.0989],[6.9799,50.0989],[6.9815,50.1171],[6.9808,50.1251],[6.9951,50.1336],[6.9897,50.137],[6.9763,50.1396],[6.9708,50.1465],[6.9559,50.1587],[6.9715,50.1625],[6.9693,50.1768],[6.9538,50.2001],[6.9569,50.2254],[6.9785,50.2368],[6.9929,50.2367],[7.0069,50.2191],[7.0201,50.2244],[7.0341,50.226],[7.0363,50.2363],[7.0566,50.2389],[7.0577,50.2484],[7.0617,50.2552],[7.0695,50.2798],[7.0417,50.2891],[7.017,50.2929],[7.0178,50.2855],[7.0056,50.2891],[6.9734,50.3067],[6.9889,50.3108],[6.9906,50.3194],[7.007,50.3204],[7.02,50.3304],[7.0397,50.3347],[7.0109,50.3421],[7.0085,50.349],[6.9843,50.3476],[6.9772,50.3379],[6.9682,50.3373],[6.9649,50.3289],[6.951,50.329],[6.9438,50.3148],[6.9267,50.3064],[6.8924,50.3154],[6.8878,50.322],[6.8643,50.3231],[6.8539,50.3262],[6.8374,50.3183],[6.8187,50.3238],[6.8141,50.3302],[6.7965,50.3265],[6.7956,50.3334],[6.8121,50.3369],[6.7976,50.3432],[6.8078,50.3586],[6.8012,50.3625],[6.7899,50.3596],[6.7828,50.3631],[6.7321,50.3521],[6.6997,50.3374],[6.6683,50.372],[6.6554,50.3677],[6.6503,50.3479],[6.6366,50.3448],[6.6231,50.3536],[6.6243,50.3749],[6.6076,50.3754],[6.5986,50.3884],[6.5819,50.3785],[6.5589,50.3692],[6.5292,50.3693],[6.5177,50.3562],[6.506,50.3596],[6.5043,50.3527],[6.4845,50.338],[6.4561,50.3399],[6.4608,50.3609],[6.4523,50.3611],[6.449,50.3718],[6.4239,50.3639],[6.4194,50.3741]]]]}},{"type":"Feature","properties":{"name":"Kreis Trier-Saarburg und Stadt Trier"},"geometry":{"type":"MultiPolygon","coordinates":[[[[6.7254,49.8817],[6.7119,49.9062],[6.6942,49.916],[6.6899,49.9096],[6.6785,49.908],[6.6774,49.8963],[6.6328,49.8786],[6.6181,49.8823],[6.605,49.8769],[6.5994,49.8832],[6.6054,49.8916],[6.5978,49.8957],[6.5849,49.8872],[6.58,49.8682],[6.5425,49.8632],[6.5253,49.8531],[6.5338,49.8413],[6.5033,49.839],[6.4755,49.8218],[6.5113,49.8025],[6.5215,49.8123],[6.5299,49.8059],[6.5069,49.7902],[6.5169,49.7825],[6.5113,49.7748],[6.5179,49.762],[6.5016,49.7519],[6.5028,49.7339],[6.5162,49.7274],[6.5114,49.7218],[6.5015,49.7261],[6.4953,49.721],[6.5066,49.7131],[6.4786,49.696],[6.4603,49.691],[6.4492,49.68],[6.4263,49.6646],[6.4352,49.6608],[6.4394,49.6526],[6.4226,49.6224],[6.392,49.6004],[6.375,49.5913],[6.3813,49.5771],[6.3678,49.5781],[6.3584,49.5722],[6.3818,49.5583],[6.3799,49.5509],[6.4147,49.5435],[6.4301,49.5489],[6.4521,49.5383],[6.4657,49.5439],[6.4946,49.5308],[6.5145,49.5355],[6.5151,49.5284],[6.5232,49.5289],[6.54,49.5391],[6.5537,49.5361],[6.5637,49.5407],[6.5796,49.5226],[6.6046,49.5176],[6.6174,49.5353],[6.6323,49.5416],[6.6428,49.5379],[6.6543,49.5458],[6.6597,49.5418],[6.6837,49.5481],[6.6913,49.5355],[6.7079,49.552],[6.7232,49.5563],[6.7566,49.5614],[6.7692,49.5692],[6.813,49.592],[6.8248,49.5889],[6.8363,49.5831],[6.8393,49.5925],[6.8662,49.6083],[6.8767,49.6027],[6.8919,49.6132],[6.9302,49.6138],[6.9327,49.6196],[6.9329,49.6311],[6.9476,49.6353],[6.9516,49.6248],[6.9752,49.6354],[6.992,49.6341],[6.9886,49.6228],[7.0032,49.6316],[7.0113,49.6266],[7.0507,49.6545],[7.044,49.6718],[7.0605,49.6765],[7.0428,49.6898],[7.0039,49.6731],[6.977,49.6783],[6.9839,49.6834],[6.9619,49.6989],[6.9736,49.7163],[6.9659,49.7252],[6.9548,49.7233],[6.9492,49.7297],[6.9463,49.7359],[6.9187,49.748],[6.9116,49.7486],[6.8964,49.7694],[6.8752,49.7797],[6.8806,49.7845],[6.899,49.7906],[6.9025,49.803],[6.9154,49.8065],[6.9434,49.8049],[6.9505,49.8178],[6.9442,49.8271],[6.9226,49.8237],[6.8873,49.8427],[6.8748,49.8777],[6.8658,49.8746],[6.8681,49.8671],[6.8395,49.8641],[6.8217,49.8595],[6.8144,49.8622],[6.7964,49.8533],[6.7845,49.877],[6.7614,49.879],[6.7632,49.8912],[6.7457,49.8894],[6.7313,49.8805],[6.7254,49.8817]]]]}},{"type":"Feature","properties":{"name":"Kreis Merzig-Wadern"},"geometry":{"type":"MultiPolygon","coordinates":[[[[6.8919,49.6132],[6.8767,49.6027],[6.8662,49.6083],[6.8393,49.5925],[6.8363,49.5831],[6.8248,49.5889],[6.813,49.592],[6.7692,49.5692],[6.7566,49.5614],[6.7232,49.5563],[6.7079,49.552],[6.6913,49.5355],[6.6837,49.5481],[6.6597,49.5418],[6.6543,49.5458],[6.6428,49.5379],[6.6323,49.5416],[6.6174,49.5353],[6.6046,49.5176],[6.5796,49.5226],[6.5637,49.5407],[6.5537,49.5361],[6.54,49.5391],[6.5232,49.5289],[6.5151,49.5284],[6.5145,49.5355],[6.4946,49.5308],[6.4657,49.5439],[6.4521,49.5383],[6.4301,49.5489],[6.4147,49.5435],[6.3799,49.5509],[6.3568,49.5304],[6.3674,49.5035],[6.3676,49.4693],[6.3976,49.4647],[6.4285,49.4764],[6.4404,49.4663],[6.4667,49.4648],[6.4844,49.4519],[6.5051,49.447],[6.5575,49.4192],[6.5714,49.4175],[6.5841,49.3999],[6.6002,49.3979],[6.6457,49.4122],[6.6644,49.3992],[6.6973,49.3818],[6.6941,49.373],[6.7478,49.3952],[6.7922,49.4084],[6.799,49.4159],[6.7866,49.437],[6.8023,49.4507],[6.7984,49.4573],[6.8062,49.4712],[6.8208,49.4689],[6.8546,49.4829],[6.8755,49.4796],[6.9104,49.5018],[6.9548,49.5117],[6.9555,49.5542],[6.9631,49.5595],[6.9496,49.5658],[6.9555,49.5947],[6.9328,49.5984],[6.9053,49.5915],[6.8954,49.5978],[6.8919,49.6132]]]]}},{"type":"Feature","properties":{"name":"Kreis Bernkastel-Wittlich"},"geometry":{"type":"MultiPolygon","coordinates":[[[[6.8767,50.109],[6.8771,50.1168],[6.8653,50.1228],[6.8588,50.1302],[6.8142,50.1219],[6.7751,50.1082],[6.7617,50.1191],[6.7554,50.1188],[6.7308,50.0906],[6.7061,50.0895],[6.6992,50.0835],[6.6977,50.0766],[6.6985,50.0594],[6.7185,50.0425],[6.7043,50.0423],[6.6986,50.0265],[6.7133,50.0088],[6.7272,49.9836],[6.7162,49.9837],[6.6815,49.9642],[6.6859,49.9571],[6.7078,49.9402],[6.7003,49.9311],[6.6976,49.9249],[6.714,49.9195],[6.7119,49.9062],[6.7254,49.8817],[6.7313,49.8805],[6.7457,49.8894],[6.7632,49.8912],[6.7614,49.879],[6.7845,49.877],[6.7964,49.8533],[6.8144,49.8622],[6.8217,49.8595],[6.8395,49.8641],[6.8681,49.8671],[6.8658,49.8746],[6.8748,49.8777],[6.8873,49.8427],[6.9226,49.8237],[6.9442,49.8271],[6.9505,49.8178],[6.9434,49.8049],[6.9154,49.8065],[6.9025,49.803],[6.899,49.7906],[6.8806,49.7845],[6.8752,49.7797],[6.8964,49.7694],[6.9116,49.7486],[6.9187,49.748],[6.9463,49.7359],[6.9492,49.7297],[6.9548,49.7233],[6.9659,49.7252],[6.9736,49.7163],[6.9619,49.6989],[6.9839,49.6834],[6.977,49.6783],[7.0039,49.6731],[7.0428,49.6898],[7.1041,49.7393],[7.1224,49.7502],[7.1275,49.767],[7.1279,49.7772],[7.1496,49.789],[7.2092,49.8265],[7.2308,49.8356],[7.2636,49.855],[7.2599,49.8612],[7.2352,49.87],[7.2218,49.8859],[7.2127,49.9035],[7.2257,49.9125],[7.2522,49.9388],[7.2165,49.9522],[7.2011,49.9686],[7.1902,49.9871],[7.1434,49.993],[7.1279,50.025],[7.1066,50.0354],[7.1013,50.047],[7.0955,50.0487],[7.0989,50.0594],[7.0854,50.0651],[7.058,50.0685],[7.041,50.064],[7.0229,50.0676],[7.0027,50.0845],[6.9842,50.0828],[6.9799,50.0989],[6.9711,50.0989],[6.9531,50.0799],[6.9435,50.088],[6.9093,50.0742],[6.9045,50.0782],[6.8984,50.1009],[6.8767,50.109]]]]}},{"type":"Feature","properties":{"name":"Kreis Cochem-Zell"},"geometry":{"type":"MultiPolygon","coordinates":[[[[7.1632,50.2808],[7.1449,50.2684],[7.1237,50.264],[7.125,50.2778],[7.114,50.2705],[7.0778,50.2716],[7.0695,50.2798],[7.0617,50.2552],[7.0577,50.2484],[7.0566,50.2389],[7.0363,50.2363],[7.0341,50.226],[7.0201,50.2244],[7.0069,50.2191],[6.9929,50.2367],[6.9785,50.2368],[6.9569,50.2254],[6.9538,50.2001],[6.9693,50.1768],[6.9715,50.1625],[6.9559,50.1587],[6.9708,50.1465],[6.9763,50.1396],[6.9897,50.137],[6.9951,50.1336],[6.9808,50.1251],[6.9815,50.1171],[6.9799,50.0989],[6.9842,50.0828],[7.0027,50.0845],[7.0229,50.0676],[7.041,50.064],[7.058,50.0685],[7.0854,50.0651],[7.0989,50.0594],[7.0955,50.0487],[7.1013,50.047],[7.1066,50.0354],[7.1279,50.025],[7.1434,49.993],[7.1902,49.9871],[7.2011,49.9686],[7.2434,49.9592],[7.2613,49.9758],[7.2843,49.9703],[7.2876,49.9866],[7.2857,49.9949],[7.3141,49.9956],[7.3289,50.0021],[7.3344,50.0111],[7.3541,50.0122],[7.3496,50.0239],[7.3288,50.0496],[7.3257,50.0614],[7.3408,50.0629],[7.3478,50.0837],[7.3396,50.0919],[7.3194,50.095],[7.2915,50.1193],[7.3154,50.1336],[7.3262,50.1254],[7.3396,50.1268],[7.3576,50.1326],[7.3696,50.1292],[7.3776,50.1343],[7.3634,50.1445],[7.3819,50.1609],[7.3758,50.174],[7.3703,50.1805],[7.3504,50.1821],[7.372,50.1901],[7.3847,50.2079],[7.3725,50.2101],[7.3635,50.2179],[7.3501,50.2083],[7.3498,50.1997],[7.3137,50.1985],[7.3107,50.2044],[7.3198,50.211],[7.3127,50.2188],[7.2864,50.2413],[7.2696,50.2518],[7.2435,50.2539],[7.2467,50.2611],[7.2129,50.258],[7.1914,50.2619],[7.1855,50.2797],[7.1767,50.2749],[7.1632,50.2808]]]]}},{"type":"Feature","properties":{"name":"Kreis Mayen-Koblenz"},"geometry":{"type":"MultiPolygon","coordinates":[[[[7.4515,50.4285],[7.4362,50.4427],[7.4091,50.4434],[7.3877,50.4463],[7.3599,50.4628],[7.3439,50.4769],[7.3333,50.4672],[7.3049,50.4656],[7.2945,50.4602],[7.2988,50.4542],[7.2886,50.451],[7.2938,50.4363],[7.2865,50.4281],[7.2552,50.4258],[7.2568,50.413],[7.2744,50.4197],[7.287,50.4129],[7.2759,50.3977],[7.2579,50.3935],[7.2413,50.4044],[7.2311,50.4049],[7.227,50.411],[7.189,50.4099],[7.1868,50.4139],[7.1493,50.3937],[7.1323,50.3899],[7.123,50.4031],[7.1015,50.402],[7.1016,50.3929],[7.0911,50.3958],[7.0831,50.4],[7.0463,50.3907],[7.0211,50.3799],[7.0138,50.3872],[7.0048,50.3797],[7.0061,50.3716],[6.9809,50.3529],[6.9843,50.3476],[7.0085,50.349],[7.0109,50.3421],[7.0397,50.3347],[7.02,50.3304],[7.007,50.3204],[6.9906,50.3194],[6.9889,50.3108],[6.9734,50.3067],[7.0056,50.2891],[7.0178,50.2855],[7.017,50.2929],[7.0417,50.2891],[7.0695,50.2798],[7.0778,50.2716],[7.114,50.2705],[7.125,50.2778],[7.1237,50.264],[7.1449,50.2684],[7.1632,50.2808],[7.1767,50.2749],[7.1855,50.2797],[7.1914,50.2619],[7.2129,50.258],[7.2467,50.2611],[7.2435,50.2539],[7.2696,50.2518],[7.2864,50.2413],[7.3127,50.2188],[7.3198,50.211],[7.3107,50.2044],[7.3137,50.1985],[7.3498,50.1997],[7.3501,50.2083],[7.3635,50.2179],[7.3725,50.2101],[7.3847,50.2079],[7.372,50.1901],[7.3504,50.1821],[7.3703,50.1805],[7.3758,50.174],[7.3819,50.1609],[7.4094,50.1614],[7.4228,50.1693],[7.4298,50.179],[7.4184,50.1958],[7.4304,50.2125],[7.4478,50.2109],[7.461,50.1974],[7.4832,50.2139],[7.49,50.2236],[7.5098,50.2302],[7.5161,50.2515],[7.5298,50.2639],[7.5713,50.2553],[7.5853,50.2603],[7.6116,50.2617],[7.6073,50.2559],[7.6342,50.2528],[7.6393,50.246],[7.6508,50.2509],[7.6515,50.261],[7.642,50.2699],[7.6032,50.293],[7.5754,50.2954],[7.5592,50.2801],[7.5466,50.2893],[7.5289,50.2862],[7.5139,50.308],[7.5349,50.3223],[7.5302,50.3344],[7.5142,50.3381],[7.5045,50.3304],[7.4889,50.3506],[7.4858,50.3634],[7.5736,50.4098],[7.615,50.3811],[7.6201,50.3715],[7.6285,50.3757],[7.6431,50.3726],[7.6437,50.3788],[7.6578,50.3831],[7.649,50.3863],[7.65,50.3998],[7.6741,50.4006],[7.6806,50.4049],[7.6683,50.4147],[7.6728,50.4201],[7.6746,50.4261],[7.6525,50.4301],[7.6358,50.4435],[7.6518,50.4559],[7.645,50.4602],[7.6243,50.4478],[7.6124,50.4543],[7.6149,50.4606],[7.5981,50.4642],[7.5808,50.4637],[7.5547,50.437],[7.5538,50.4177],[7.5315,50.4218],[7.5017,50.4134],[7.4803,50.4125],[7.4515,50.4285]]]]}},{"type":"Feature","properties":{"name":"Kreis St. Wendel"},"geometry":{"type":"MultiPolygon","coordinates":[[[[7.0575,49.6311],[7.0279,49.6393],[7.0113,49.6266],[7.0032,49.6316],[6.9886,49.6228],[6.992,49.6341],[6.9752,49.6354],[6.9516,49.6248],[6.9476,49.6353],[6.9329,49.6311],[6.9327,49.6196],[6.9302,49.6138],[6.8919,49.6132],[6.8954,49.5978],[6.9053,49.5915],[6.9328,49.5984],[6.9555,49.5947],[6.9496,49.5658],[6.9631,49.5595],[6.9555,49.5542],[6.9548,49.5117],[6.9104,49.5018],[6.9264,49.4884],[6.9126,49.479],[6.9251,49.4689],[6.9326,49.4727],[6.9696,49.4862],[6.9716,49.4621],[6.9896,49.4366],[6.9951,49.4379],[7.0321,49.4222],[7.047,49.4265],[7.0602,49.4095],[7.0909,49.4148],[7.101,49.4207],[7.1211,49.4296],[7.1487,49.416],[7.1931,49.4276],[7.2089,49.4416],[7.2353,49.4271],[7.2534,49.4313],[7.2554,49.4401],[7.2463,49.4462],[7.287,49.4574],[7.2994,49.466],[7.3048,49.4746],[7.2964,49.4821],[7.2797,49.485],[7.2867,49.4991],[7.2816,49.5058],[7.2937,49.5219],[7.3098,49.52],[7.3002,49.5333],[7.2789,49.5366],[7.2736,49.5613],[7.2643,49.5723],[7.2663,49.5838],[7.2479,49.5735],[7.2247,49.5648],[7.21,49.5684],[7.2097,49.5769],[7.188,49.5761],[7.1726,49.5864],[7.1753,49.5963],[7.1502,49.6039],[7.1447,49.5974],[7.1221,49.5954],[7.1036,49.6029],[7.0876,49.6005],[7.0802,49.612],[7.0575,49.6311]]]]}},{"type":"Feature","properties":{"name":"Kreis Birkenfeld"},"geometry":{"type":"MultiPolygon","coordinates":[[[[7.3305,49.901],[7.3084,49.8829],[7.288,49.8786],[7.2801,49.8994],[7.271,49.8955],[7.2555,49.8915],[7.2413,49.8942],[7.2218,49.8859],[7.2352,49.87],[7.2599,49.8612],[7.2636,49.855],[7.2308,49.8356],[7.2092,49.8265],[7.1496,49.789],[7.1279,49.7772],[7.1275,49.767],[7.1224,49.7502],[7.1041,49.7393],[7.0428,49.6898],[7.0605,49.6765],[7.044,49.6718],[7.0507,49.6545],[7.0279,49.6393],[7.0575,49.6311],[7.0802,49.612],[7.0876,49.6005],[7.1036,49.6029],[7.1221,49.5954],[7.1447,49.5974],[7.1502,49.6039],[7.1753,49.5963],[7.1726,49.5864],[7.188,49.5761],[7.2097,49.5769],[7.21,49.5684],[7.2247,49.5648],[7.2479,49.5735],[7.2663,49.5838],[7.2643,49.5723],[7.2736,49.5613],[7.276,49.5499],[7.3113,49.5564],[7.3253,49.5567],[7.3227,49.5654],[7.3335,49.5646],[7.3433,49.5783],[7.3584,49.5896],[7.3746,49.5986],[7.3946,49.5957],[7.4158,49.5908],[7.4358,49.59],[7.4472,49.6156],[7.4379,49.6202],[7.4339,49.6404],[7.4268,49.6492],[7.443,49.6668],[7.4789,49.6772],[7.4899,49.676],[7.5202,49.679],[7.5247,49.708],[7.4916,49.7031],[7.4938,49.7164],[7.4726,49.7415],[7.4641,49.7479],[7.4411,49.7359],[7.4306,49.7417],[7.4235,49.7473],[7.4153,49.7478],[7.412,49.7523],[7.4205,49.7662],[7.4396,49.7718],[7.4438,49.7863],[7.4008,49.8121],[7.4011,49.8218],[7.3955,49.8305],[7.3956,49.8395],[7.3881,49.8471],[7.3983,49.8484],[7.3928,49.859],[7.3979,49.8878],[7.3768,49.8967],[7.3567,49.8999],[7.3381,49.8959],[7.3305,49.901]]]]}},{"type":"Feature","properties":{"name":"Rhein-Hunsrück-Kreis"},"geometry":{"type":"MultiPolygon","coordinates":[[[[7.5298,50.2639],[7.5161,50.2515],[7.5098,50.2302],[7.49,50.2236],[7.4832,50.2139],[7.461,50.1974],[7.4478,50.2109],[7.4304,50.2125],[7.4184,50.1958],[7.4298,50.179],[7.4228,50.1693],[7.4094,50.1614],[7.3819,50.1609],[7.3634,50.1445],[7.3776,50.1343],[7.3696,50.1292],[7.3576,50.1326],[7.3396,50.1268],[7.3262,50.1254],[7.3154,50.1336],[7.2915,50.1193],[7.3194,50.095],[7.3396,50.0919],[7.3478,50.0837],[7.3408,50.0629],[7.3257,50.0614],[7.3288,50.0496],[7.3496,50.0239],[7.3541,50.0122],[7.3344,50.0111],[7.3289,50.0021],[7.3141,49.9956],[7.2857,49.9949],[7.2876,49.9866],[7.2843,49.9703],[7.2613,49.9758],[7.2434,49.9592],[7.2011,49.9686],[7.2165,49.9522],[7.2522,49.9388],[7.2257,49.9125],[7.2127,49.9035],[7.2218,49.8859],[7.2413,49.8942],[7.2555,49.8915],[7.271,49.8955],[7.2801,49.8994],[7.288,49.8786],[7.3084,49.8829],[7.3305,49.901],[7.3381,49.8959],[7.3567,49.8999],[7.3768,49.8967],[7.3979,49.8878],[7.3928,49.859],[7.4122,49.858],[7.4257,49.8504],[7.4231,49.8426],[7.4511,49.8543],[7.472,49.8682],[7.4933,49.8564],[7.5409,49.8912],[7.5451,49.896],[7.5683,49.8978],[7.5867,49.9127],[7.6179,49.926],[7.6316,49.9353],[7.6509,49.9296],[7.6619,49.9421],[7.6587,49.9527],[7.6686,49.9595],[7.6671,49.969],[7.6826,49.9776],[7.707,49.9803],[7.6833,49.9971],[7.7288,50.0014],[7.7152,50.0099],[7.7,50.0129],[7.6961,50.022],[7.6874,50.0316],[7.6661,50.0323],[7.6948,50.0569],[7.7162,50.0663],[7.7625,50.082],[7.7568,50.0936],[7.7248,50.1148],[7.7364,50.1211],[7.7392,50.1297],[7.7264,50.138],[7.7243,50.1465],[7.6961,50.1674],[7.6636,50.1707],[7.6446,50.18],[7.6424,50.2007],[7.6092,50.2303],[7.5861,50.2335],[7.5761,50.2423],[7.5917,50.2497],[7.6393,50.246],[7.6342,50.2528],[7.6073,50.2559],[7.6116,50.2617],[7.5853,50.2603],[7.5713,50.2553],[7.5298,50.2639]]]]}}]}