{"type":"FeatureCollection","attribution":"Verwaltungsgrenzen: © BKG (2026) dl-de/by-2-0, Datenquellen: https://sgx.geodatenzentrum.de/web_public/gdz/datenquellen/datenquellen_vg_nuts.pdf","licence":"dl-de/by-2-0","stand":"01.01.2026","features":[{"type":"Feature","properties":{"sn_l":"07"},"geometry":{"type":"MultiPolygon","coordinates":[[[[7.80879,50.9388],[7.80719,50.93983],[7.80301,50.9409],[7.79281,50.94234],[7.7859,50.93991],[7.77622,50.92904],[7.76762,50.92536],[7.7636,50.92295],[7.76128,50.92223],[7.75728,50.92016],[7.75449,50.92162],[7.7485,50.91912],[7.74236,50.91976],[7.73546,50.91777],[7.73579,50.91572],[7.74281,50.91389],[7.74687,50.91239],[7.74506,50.9052],[7.7506,50.90566],[7.75249,50.90456],[7.7588,50.90271],[7.76043,50.90039],[7.75653,50.89398],[7.75354,50.89232],[7.75302,50.88838],[7.75877,50.87977],[7.75775,50.87794],[7.75283,50.87518],[7.75188,50.87147],[7.74872,50.8683],[7.74831,50.86722],[7.75414,50.86529],[7.75548,50.86315],[7.75745,50.86212],[7.76016,50.8617],[7.76403,50.85752],[7.76597,50.85682],[7.76206,50.85501],[7.76067,50.85404],[7.75909,50.85406],[7.7571,50.85362],[7.75386,50.85201],[7.75319,50.85137],[7.75343,50.85055],[7.75482,50.84918],[7.76034,50.84858],[7.7607,50.84627],[7.76219,50.84513],[7.75804,50.84348],[7.75388,50.84449],[7.74674,50.84686],[7.73691,50.84724],[7.72934,50.85052],[7.72674,50.84749],[7.72169,50.84316],[7.71429,50.84045],[7.71361,50.83362],[7.70948,50.83445],[7.70639,50.83386],[7.7065,50.83057],[7.69943,50.82501],[7.68778,50.82265],[7.68171,50.82199],[7.67783,50.82009],[7.67463,50.8192],[7.6723,50.81973],[7.66921,50.81862],[7.6675,50.81921],[7.66641,50.82076],[7.661,50.82036],[7.66289,50.81879],[7.66252,50.81711],[7.66411,50.81535],[7.66776,50.81421],[7.6699,50.81244],[7.67227,50.81201],[7.67636,50.81234],[7.67698,50.81153],[7.67951,50.81005],[7.67874,50.8091],[7.67499,50.80653],[7.67619,50.8047],[7.67505,50.80267],[7.6771,50.80163],[7.67881,50.79944],[7.68006,50.79882],[7.67988,50.79807],[7.68061,50.79723],[7.68181,50.79677],[7.68222,50.79537],[7.68212,50.79469],[7.67976,50.79225],[7.67864,50.78691],[7.67865,50.78458],[7.67783,50.78173],[7.67594,50.77933],[7.67252,50.78221],[7.66988,50.78563],[7.66846,50.78619],[7.6663,50.78643],[7.66195,50.78603],[7.66001,50.78557],[7.65894,50.78483],[7.65855,50.7837],[7.65874,50.78054],[7.65996,50.77742],[7.66231,50.77405],[7.66216,50.77316],[7.65868,50.77014],[7.65691,50.76964],[7.65481,50.76976],[7.65602,50.76886],[7.65545,50.76787],[7.64539,50.77088],[7.64457,50.76955],[7.64041,50.76912],[7.636,50.76951],[7.6292,50.76885],[7.62775,50.76965],[7.62177,50.76935],[7.61817,50.77017],[7.6161,50.76939],[7.61572,50.7685],[7.61435,50.76808],[7.61172,50.76834],[7.6092,50.76823],[7.60491,50.76574],[7.60104,50.76631],[7.59985,50.76584],[7.59851,50.76365],[7.59903,50.76107],[7.59845,50.76044],[7.59744,50.75992],[7.59588,50.75966],[7.59309,50.75838],[7.59162,50.7562],[7.59164,50.75497],[7.5953,50.75097],[7.59463,50.74891],[7.59322,50.74782],[7.59379,50.74176],[7.59237,50.74055],[7.58728,50.73999],[7.58492,50.73844],[7.58331,50.73791],[7.58025,50.73814],[7.57409,50.74032],[7.56616,50.74173],[7.56306,50.74338],[7.55837,50.743],[7.5519,50.74634],[7.55026,50.74597],[7.54652,50.74387],[7.53897,50.74214],[7.5346,50.74034],[7.52967,50.73818],[7.52153,50.73366],[7.52192,50.7361],[7.51939,50.73741],[7.51952,50.73563],[7.51831,50.73126],[7.52012,50.729],[7.51617,50.72911],[7.50794,50.73042],[7.50744,50.72941],[7.50443,50.72997],[7.50194,50.73001],[7.49816,50.72656],[7.4965,50.72649],[7.49389,50.72549],[7.49156,50.72591],[7.49297,50.72366],[7.48491,50.72243],[7.48234,50.71982],[7.47982,50.71825],[7.46828,50.71849],[7.46746,50.71796],[7.46495,50.71775],[7.46434,50.71855],[7.46133,50.71862],[7.45646,50.71808],[7.45389,50.7158],[7.44894,50.71581],[7.44862,50.71744],[7.44498,50.71611],[7.44487,50.71382],[7.44367,50.71265],[7.44315,50.7112],[7.43915,50.71109],[7.43282,50.70989],[7.4234,50.70995],[7.41811,50.71208],[7.41492,50.71498],[7.41138,50.71686],[7.40705,50.71819],[7.4028,50.71748],[7.39811,50.71525],[7.39728,50.71427],[7.38761,50.71573],[7.38754,50.71749],[7.37892,50.71583],[7.3777,50.71616],[7.37616,50.71765],[7.37401,50.71822],[7.37088,50.71523],[7.37317,50.71472],[7.37175,50.71284],[7.36928,50.71323],[7.36862,50.71229],[7.36999,50.71199],[7.36802,50.70916],[7.36719,50.70671],[7.36307,50.70505],[7.36243,50.70449],[7.36302,50.70248],[7.36243,50.70112],[7.36023,50.70049],[7.35714,50.6979],[7.36018,50.69711],[7.36831,50.69709],[7.36634,50.69383],[7.36464,50.69224],[7.36712,50.69065],[7.36721,50.68933],[7.36512,50.68761],[7.36736,50.68549],[7.37206,50.68211],[7.37185,50.6811],[7.36618,50.6807],[7.36742,50.6795],[7.36999,50.67797],[7.36932,50.67255],[7.36542,50.67297],[7.36432,50.6727],[7.35582,50.66523],[7.35649,50.66368],[7.35517,50.66168],[7.35566,50.65536],[7.35767,50.65492],[7.35898,50.64949],[7.35055,50.64627],[7.33805,50.64224],[7.33548,50.64084],[7.33348,50.6384],[7.33054,50.63957],[7.32892,50.63958],[7.32548,50.64025],[7.32317,50.64126],[7.32262,50.64187],[7.31874,50.64059],[7.31646,50.63871],[7.31463,50.6386],[7.31467,50.63744],[7.3131,50.63701],[7.31119,50.63805],[7.30822,50.63819],[7.3051,50.63758],[7.29888,50.63385],[7.29732,50.63182],[7.28294,50.62884],[7.27206,50.6275],[7.27032,50.62656],[7.26635,50.62645],[7.26475,50.62743],[7.26395,50.62731],[7.26209,50.6256],[7.25647,50.62459],[7.25438,50.62567],[7.25196,50.62784],[7.25154,50.62671],[7.24998,50.62713],[7.24798,50.62684],[7.24736,50.62739],[7.24041,50.62711],[7.24019,50.62822],[7.23705,50.62822],[7.2347,50.62767],[7.22982,50.6275],[7.22741,50.62691],[7.22603,50.62697],[7.2219,50.62805],[7.21703,50.62807],[7.21572,50.6279],[7.21632,50.62444],[7.21468,50.62343],[7.21292,50.62345],[7.21145,50.63404],[7.2121,50.64332],[7.21146,50.64816],[7.21072,50.64975],[7.20545,50.64903],[7.20515,50.64957],[7.20382,50.64924],[7.20335,50.65007],[7.20131,50.64892],[7.19849,50.64821],[7.19881,50.64698],[7.19726,50.64567],[7.1952,50.64272],[7.19373,50.63773],[7.19064,50.63604],[7.18925,50.62943],[7.1904,50.62653],[7.18938,50.62557],[7.18984,50.6239],[7.18687,50.62228],[7.18386,50.62293],[7.18021,50.62245],[7.17398,50.61891],[7.1738,50.61363],[7.17302,50.61255],[7.16931,50.61227],[7.16798,50.61264],[7.16472,50.6124],[7.15472,50.61471],[7.15222,50.61304],[7.15161,50.60998],[7.14922,50.60948],[7.14811,50.60617],[7.14785,50.60029],[7.13981,50.60064],[7.14,50.60176],[7.13543,50.60217],[7.1356,50.60297],[7.13123,50.60368],[7.12585,50.60636],[7.12516,50.60828],[7.12143,50.61053],[7.11939,50.61231],[7.11512,50.61179],[7.11182,50.60926],[7.11279,50.60821],[7.11264,50.60571],[7.11028,50.60255],[7.1119,50.60195],[7.10532,50.59665],[7.10472,50.59239],[7.1038,50.59132],[7.10004,50.58909],[7.09509,50.58744],[7.09527,50.58637],[7.09081,50.58591],[7.08743,50.58601],[7.08487,50.58644],[7.08548,50.58818],[7.07251,50.59206],[7.07148,50.59306],[7.06903,50.59274],[7.06646,50.59758],[7.06635,50.6007],[7.05925,50.60037],[7.05907,50.6038],[7.05613,50.60624],[7.05508,50.60492],[7.0515,50.60343],[7.05118,50.60461],[7.04919,50.60434],[7.04901,50.60321],[7.03528,50.59436],[7.03197,50.58997],[7.02341,50.58357],[7.01591,50.57699],[7.01024,50.57291],[6.9981,50.56505],[6.99186,50.56423],[6.98568,50.56485],[6.98358,50.56573],[6.98103,50.56448],[6.97729,50.56345],[6.97658,50.56282],[6.97686,50.56143],[6.9761,50.55778],[6.9721,50.55591],[6.96773,50.55739],[6.96597,50.55656],[6.96044,50.55622],[6.95909,50.55681],[6.95652,50.55703],[6.95614,50.56088],[6.95373,50.56125],[6.95309,50.56258],[6.95138,50.56338],[6.94848,50.56243],[6.94732,50.56367],[6.94405,50.56342],[6.93922,50.56229],[6.93937,50.56117],[6.9367,50.56049],[6.93097,50.56045],[6.92462,50.55639],[6.9242,50.55549],[6.92205,50.55428],[6.92426,50.54996],[6.92586,50.54403],[6.92758,50.5429],[6.92897,50.54262],[6.93137,50.53557],[6.93048,50.53403],[6.92935,50.53314],[6.9269,50.5334],[6.92317,50.53285],[6.92383,50.53158],[6.91598,50.52911],[6.9165,50.52798],[6.91256,50.52738],[6.909,50.5255],[6.9058,50.52576],[6.90445,50.5272],[6.89873,50.52713],[6.8991,50.52918],[6.90075,50.53079],[6.89757,50.53069],[6.89462,50.52973],[6.88608,50.52932],[6.88526,50.52844],[6.8821,50.52695],[6.88446,50.52474],[6.88383,50.52176],[6.88449,50.51994],[6.88725,50.51867],[6.89264,50.51832],[6.89382,50.51776],[6.89782,50.51769],[6.89647,50.51662],[6.8962,50.51451],[6.89419,50.51383],[6.88897,50.50827],[6.88855,50.50701],[6.89231,50.50624],[6.89753,50.50639],[6.89954,50.5038],[6.90707,50.50264],[6.90485,50.49986],[6.90106,50.49742],[6.90032,50.49485],[6.89787,50.49227],[6.89852,50.49204],[6.90028,50.49241],[6.90175,50.49191],[6.90036,50.48977],[6.90423,50.48695],[6.90559,50.48505],[6.90411,50.48211],[6.9018,50.48143],[6.89921,50.47804],[6.90321,50.47528],[6.89988,50.47099],[6.90148,50.46909],[6.89436,50.467],[6.89131,50.46739],[6.88897,50.46628],[6.88784,50.46738],[6.8767,50.46479],[6.873,50.4623],[6.86674,50.45625],[6.86311,50.45696],[6.85857,50.45327],[6.85679,50.45322],[6.85505,50.45418],[6.85281,50.45755],[6.85017,50.45716],[6.84748,50.45934],[6.84358,50.46038],[6.84054,50.46395],[6.83654,50.46552],[6.8316,50.46605],[6.82859,50.46703],[6.8256,50.46724],[6.8184,50.46963],[6.8169,50.47083],[6.81207,50.47224],[6.80921,50.47557],[6.80749,50.4791],[6.80619,50.48824],[6.80379,50.48911],[6.80094,50.49132],[6.79631,50.48999],[6.79092,50.48887],[6.78938,50.48911],[6.78792,50.48825],[6.77986,50.48658],[6.77867,50.48517],[6.77539,50.4825],[6.76828,50.48428],[6.76756,50.48234],[6.75913,50.47459],[6.75136,50.47514],[6.7446,50.47263],[6.74324,50.46775],[6.7456,50.46648],[6.74773,50.46616],[6.75074,50.46665],[6.75109,50.46799],[6.7518,50.46805],[6.75148,50.47023],[6.75385,50.47142],[6.75815,50.47093],[6.75815,50.46826],[6.75872,50.46769],[6.75794,50.46707],[6.75845,50.4661],[6.75644,50.46493],[6.75711,50.46383],[6.75707,50.46303],[6.75933,50.46179],[6.76274,50.46263],[6.76466,50.46169],[6.76463,50.46043],[6.76662,50.45864],[6.76622,50.45792],[6.76495,50.45749],[6.76294,50.4557],[6.76453,50.455],[6.76463,50.45079],[6.75712,50.44696],[6.75194,50.44527],[6.7437,50.44092],[6.74594,50.43811],[6.74506,50.43697],[6.74552,50.43593],[6.74838,50.43517],[6.74806,50.43453],[6.74997,50.43398],[6.75325,50.43369],[6.75522,50.43426],[6.75782,50.43405],[6.76032,50.43139],[6.76392,50.43338],[6.7712,50.43605],[6.76924,50.43248],[6.76931,50.43105],[6.77123,50.4265],[6.77069,50.42505],[6.77201,50.4244],[6.77867,50.42414],[6.7836,50.42121],[6.78512,50.42063],[6.78309,50.41914],[6.78116,50.41702],[6.77923,50.41361],[6.77931,50.40497],[6.77364,50.40126],[6.77048,50.39772],[6.76931,50.39275],[6.77387,50.38951],[6.77674,50.38527],[6.78059,50.38131],[6.78543,50.37546],[6.78469,50.37475],[6.79057,50.37302],[6.7962,50.36994],[6.80275,50.3693],[6.80252,50.36742],[6.80038,50.364],[6.80071,50.36178],[6.79559,50.35954],[6.7952,50.36197],[6.79153,50.36145],[6.78817,50.36254],[6.78308,50.36191],[6.78088,50.36328],[6.77769,50.36443],[6.77698,50.36337],[6.77806,50.36185],[6.77677,50.35809],[6.77438,50.35888],[6.77089,50.36121],[6.76484,50.35829],[6.75352,50.35412],[6.75207,50.3555],[6.746,50.35419],[6.73598,50.35326],[6.73453,50.35238],[6.7324,50.3525],[6.73152,50.3517],[6.72997,50.3513],[6.72712,50.34926],[6.72411,50.3481],[6.71807,50.34648],[6.71257,50.34429],[6.70894,50.34389],[6.70603,50.34279],[6.70381,50.34094],[6.70189,50.33819],[6.69924,50.3361],[6.69635,50.34038],[6.69566,50.34336],[6.69632,50.34407],[6.69636,50.34639],[6.69147,50.35022],[6.68845,50.35384],[6.68677,50.35838],[6.6818,50.36296],[6.68069,50.3624],[6.67713,50.36496],[6.67497,50.36699],[6.67377,50.36689],[6.67239,50.36902],[6.66999,50.36988],[6.66868,50.37142],[6.66735,50.37197],[6.6596,50.36956],[6.65601,50.36744],[6.65661,50.35873],[6.65753,50.35699],[6.65497,50.35322],[6.65227,50.35232],[6.65423,50.35108],[6.65162,50.34972],[6.64996,50.34817],[6.64458,50.34727],[6.64096,50.34731],[6.6379,50.34527],[6.63621,50.34537],[6.63259,50.34878],[6.63143,50.3482],[6.62887,50.35048],[6.62984,50.35123],[6.62626,50.3521],[6.62356,50.35163],[6.62225,50.35366],[6.62325,50.35444],[6.62155,50.35612],[6.62321,50.35887],[6.62181,50.36],[6.62503,50.3622],[6.62447,50.36327],[6.62552,50.36353],[6.6263,50.36749],[6.62548,50.37171],[6.62743,50.37192],[6.62535,50.37488],[6.62147,50.37426],[6.61627,50.37702],[6.60409,50.37512],[6.6012,50.37838],[6.60676,50.38097],[6.60309,50.38822],[6.59761,50.38575],[6.59213,50.38439],[6.58883,50.38394],[6.58517,50.3825],[6.5835,50.38091],[6.58204,50.37865],[6.58185,50.37754],[6.57518,50.3764],[6.56919,50.37663],[6.56679,50.3741],[6.56652,50.37249],[6.56559,50.37192],[6.56416,50.37199],[6.5619,50.37126],[6.55902,50.36941],[6.54318,50.36624],[6.5427,50.36769],[6.54469,50.37005],[6.54218,50.37106],[6.53903,50.37102],[6.53697,50.36992],[6.53305,50.36938],[6.5328,50.37004],[6.53045,50.36935],[6.52552,50.36546],[6.5229,50.36398],[6.52105,50.36306],[6.51662,50.36219],[6.51787,50.36106],[6.51486,50.35935],[6.51588,50.35791],[6.5164,50.35539],[6.51332,50.35759],[6.50712,50.35988],[6.50421,50.35765],[6.50349,50.35549],[6.50361,50.35353],[6.50479,50.35235],[6.49178,50.347],[6.49083,50.34533],[6.48695,50.34312],[6.48795,50.3406],[6.48413,50.33936],[6.48474,50.33856],[6.47522,50.33845],[6.47195,50.33935],[6.47026,50.3418],[6.46805,50.34249],[6.46598,50.34259],[6.4644,50.34233],[6.45906,50.33892],[6.45303,50.33636],[6.45162,50.33642],[6.44959,50.33835],[6.45203,50.33959],[6.45373,50.34146],[6.45867,50.34397],[6.4571,50.34781],[6.45715,50.35177],[6.46116,50.35903],[6.45892,50.36201],[6.45607,50.36239],[6.45434,50.36222],[6.45385,50.363],[6.4515,50.36271],[6.44947,50.36378],[6.44806,50.36764],[6.44879,50.37034],[6.44856,50.37134],[6.44292,50.3717],[6.43918,50.37148],[6.43539,50.37032],[6.43646,50.36909],[6.43405,50.36838],[6.43235,50.36689],[6.43315,50.36429],[6.43168,50.36419],[6.43002,50.36319],[6.42754,50.36597],[6.42349,50.36871],[6.42088,50.3689],[6.42084,50.3732],[6.41485,50.37455],[6.41691,50.377],[6.41972,50.37915],[6.41992,50.38047],[6.4217,50.38065],[6.42203,50.38195],[6.42134,50.38267],[6.41824,50.38279],[6.41551,50.38544],[6.41541,50.38658],[6.41304,50.38949],[6.38501,50.38419],[6.38823,50.38131],[6.39187,50.37985],[6.38934,50.37715],[6.3895,50.37258],[6.389,50.37169],[6.39249,50.37063],[6.3948,50.36726],[6.3973,50.36768],[6.39799,50.36611],[6.39483,50.36435],[6.39425,50.36339],[6.39545,50.36142],[6.40598,50.36382],[6.40216,50.36056],[6.39946,50.35988],[6.39718,50.35791],[6.39991,50.35599],[6.40467,50.35058],[6.40392,50.35012],[6.40327,50.34655],[6.40465,50.34386],[6.40791,50.33938],[6.41499,50.33266],[6.41642,50.33284],[6.41817,50.33354],[6.42406,50.33383],[6.42406,50.33289],[6.42244,50.33162],[6.42223,50.3306],[6.42367,50.32799],[6.42516,50.32684],[6.42429,50.32616],[6.42403,50.32499],[6.42498,50.32401],[6.42529,50.32301],[6.42045,50.32334],[6.41518,50.32454],[6.41291,50.32372],[6.40957,50.3231],[6.4069,50.32353],[6.38939,50.32109],[6.38258,50.32205],[6.38094,50.32142],[6.38144,50.31931],[6.37893,50.31912],[6.37591,50.31751],[6.37666,50.31658],[6.37507,50.3158],[6.37605,50.31513],[6.37507,50.3138],[6.37052,50.31278],[6.36156,50.31471],[6.36131,50.31352],[6.35932,50.31298],[6.35896,50.3135],[6.35869,50.31287],[6.35922,50.31091],[6.35853,50.31133],[6.35789,50.31126],[6.35933,50.31015],[6.35834,50.30982],[6.35993,50.30888],[6.36073,50.30737],[6.36357,50.30556],[6.36332,50.30543],[6.36146,50.30634],[6.35942,50.30689],[6.35749,50.30854],[6.35586,50.30939],[6.35131,50.3108],[6.35032,50.31229],[6.34964,50.31243],[6.34838,50.31496],[6.34567,50.31469],[6.34048,50.31577],[6.34114,50.31647],[6.34265,50.31628],[6.34289,50.3169],[6.34385,50.31724],[6.34316,50.31778],[6.34244,50.31738],[6.34202,50.31794],[6.34292,50.31844],[6.34133,50.31863],[6.34072,50.31812],[6.33489,50.31642],[6.33484,50.31719],[6.33592,50.3175],[6.33565,50.31881],[6.33426,50.31877],[6.33301,50.31935],[6.33286,50.32078],[6.33431,50.32076],[6.33332,50.32316],[6.33091,50.32289],[6.32727,50.32454],[6.32546,50.32293],[6.31801,50.31907],[6.31698,50.32002],[6.31766,50.32117],[6.31675,50.32149],[6.3155,50.3206],[6.3128,50.32186],[6.30801,50.32035],[6.30647,50.32014],[6.30546,50.31853],[6.30548,50.31761],[6.30786,50.31593],[6.30681,50.31412],[6.30923,50.3117],[6.30662,50.30971],[6.30423,50.30982],[6.30257,50.31039],[6.30079,50.31038],[6.29842,50.30903],[6.29612,50.30901],[6.29564,50.30763],[6.29686,50.30727],[6.29588,50.30532],[6.29825,50.30415],[6.29733,50.30279],[6.29809,50.30215],[6.29639,50.302],[6.29465,50.30132],[6.29565,50.29971],[6.29429,50.29909],[6.2947,50.29838],[6.29108,50.2977],[6.29271,50.29691],[6.2915,50.29563],[6.28586,50.29407],[6.28654,50.29242],[6.28861,50.29052],[6.28689,50.29025],[6.2882,50.28883],[6.28698,50.28832],[6.28606,50.28739],[6.28537,50.28602],[6.28516,50.28432],[6.28625,50.2825],[6.28924,50.28197],[6.29209,50.27883],[6.29148,50.27837],[6.29081,50.27649],[6.28911,50.27506],[6.28646,50.27452],[6.28509,50.27371],[6.28443,50.27277],[6.28224,50.27135],[6.28207,50.27028],[6.28118,50.2691],[6.2793,50.26796],[6.27794,50.26643],[6.27699,50.26613],[6.27585,50.26686],[6.27441,50.2672],[6.27317,50.26716],[6.27236,50.26768],[6.27049,50.26689],[6.26922,50.26683],[6.26654,50.26482],[6.26452,50.26525],[6.26154,50.26507],[6.25873,50.26778],[6.25588,50.26672],[6.25511,50.26579],[6.25013,50.2636],[6.24595,50.26277],[6.24548,50.26194],[6.23757,50.26157],[6.23895,50.26244],[6.23609,50.26253],[6.23232,50.26039],[6.22723,50.25869],[6.22363,50.25866],[6.22283,50.25725],[6.22143,50.2564],[6.22097,50.25652],[6.21844,50.25438],[6.21728,50.25487],[6.21874,50.25633],[6.21577,50.25701],[6.21425,50.25486],[6.21249,50.25376],[6.21196,50.25294],[6.2089,50.25353],[6.20676,50.2517],[6.20534,50.2512],[6.20671,50.24975],[6.20666,50.24929],[6.20455,50.2479],[6.20514,50.24684],[6.20112,50.24206],[6.2005,50.23996],[6.19752,50.2381],[6.19526,50.23702],[6.19324,50.23665],[6.19178,50.23663],[6.18488,50.23771],[6.18173,50.237],[6.18047,50.23616],[6.17678,50.23586],[6.17569,50.23542],[6.17531,50.23418],[6.17376,50.23332],[6.17358,50.23205],[6.17735,50.22874],[6.17708,50.22682],[6.17637,50.22585],[6.1747,50.22519],[6.17272,50.22487],[6.16975,50.22497],[6.16818,50.22455],[6.16676,50.22251],[6.16641,50.22004],[6.16723,50.2192],[6.17191,50.219],[6.17615,50.2169],[6.17797,50.21649],[6.17865,50.21545],[6.17861,50.21444],[6.18184,50.21173],[6.18233,50.20904],[6.18308,50.20766],[6.18463,50.20639],[6.18891,50.20528],[6.18867,50.20459],[6.18723,50.20434],[6.18529,50.20297],[6.18665,50.20107],[6.1852,50.19903],[6.1865,50.19564],[6.1846,50.19371],[6.18443,50.19288],[6.18395,50.19291],[6.18389,50.19207],[6.18491,50.19183],[6.18714,50.18919],[6.18854,50.18875],[6.19028,50.18761],[6.18947,50.1858],[6.18583,50.18404],[6.18717,50.1834],[6.18948,50.18302],[6.19071,50.18208],[6.19275,50.18187],[6.18753,50.17894],[6.18341,50.17815],[6.18013,50.17809],[6.178,50.1799],[6.17715,50.17879],[6.17509,50.1793],[6.16904,50.17871],[6.16828,50.17981],[6.16766,50.17967],[6.16719,50.17898],[6.16532,50.17906],[6.1614,50.17759],[6.16175,50.17584],[6.16034,50.17182],[6.15602,50.17185],[6.15272,50.17625],[6.15021,50.17748],[6.14689,50.17778],[6.14583,50.17655],[6.14427,50.1735],[6.14491,50.17242],[6.14761,50.17107],[6.14758,50.17046],[6.14626,50.16979],[6.14056,50.16964],[6.13979,50.16927],[6.13982,50.16775],[6.1408,50.16617],[6.14213,50.16495],[6.14593,50.16309],[6.14633,50.16168],[6.14752,50.16063],[6.14456,50.15666],[6.14339,50.15586],[6.13865,50.15509],[6.13253,50.15554],[6.13198,50.15488],[6.13211,50.15355],[6.13465,50.15162],[6.13842,50.15061],[6.14024,50.14982],[6.14082,50.14918],[6.14055,50.14798],[6.14221,50.14801],[6.14322,50.14906],[6.14853,50.15189],[6.15028,50.15111],[6.15015,50.15073],[6.15287,50.15009],[6.15246,50.14742],[6.15466,50.1419],[6.1514,50.13979],[6.15071,50.13881],[6.1509,50.13771],[6.14842,50.13626],[6.14584,50.13544],[6.14409,50.13554],[6.14199,50.13504],[6.13882,50.13503],[6.13841,50.13447],[6.13859,50.13188],[6.13768,50.1299],[6.13778,50.12847],[6.1368,50.1246],[6.13629,50.1239],[6.13535,50.12343],[6.1317,50.12252],[6.1296,50.12158],[6.12814,50.1162],[6.12884,50.11494],[6.12939,50.1143],[6.13031,50.11394],[6.13361,50.11386],[6.135,50.11332],[6.13384,50.11141],[6.13088,50.10821],[6.131,50.10695],[6.13194,50.10599],[6.13461,50.10497],[6.13556,50.10387],[6.13551,50.10338],[6.13502,50.10299],[6.13319,50.10254],[6.13035,50.10289],[6.12673,50.1021],[6.12566,50.1012],[6.12553,50.09973],[6.12637,50.0979],[6.12827,50.09555],[6.12984,50.09495],[6.13257,50.09479],[6.13298,50.09324],[6.13245,50.09273],[6.13057,50.09231],[6.12293,50.09365],[6.12172,50.09332],[6.12049,50.09221],[6.11948,50.08963],[6.11968,50.08655],[6.12008,50.08504],[6.12201,50.08346],[6.12199,50.08131],[6.12014,50.07824],[6.1186,50.07706],[6.11821,50.07599],[6.11628,50.0748],[6.11614,50.07433],[6.1183,50.07261],[6.11912,50.07239],[6.12102,50.07255],[6.12169,50.07294],[6.12206,50.07425],[6.12359,50.07645],[6.12493,50.0769],[6.12855,50.07478],[6.12929,50.07355],[6.12911,50.073],[6.12575,50.07095],[6.12145,50.06887],[6.12115,50.06591],[6.12058,50.06486],[6.11816,50.06459],[6.11547,50.06578],[6.11418,50.0657],[6.11372,50.0654],[6.11385,50.06351],[6.11235,50.06051],[6.11256,50.05923],[6.11376,50.05784],[6.11812,50.05638],[6.12,50.05665],[6.12049,50.05719],[6.12053,50.06005],[6.12108,50.06036],[6.12215,50.06037],[6.12394,50.05975],[6.12414,50.05902],[6.12336,50.05684],[6.12128,50.05441],[6.12151,50.05288],[6.12205,50.05227],[6.12515,50.05101],[6.12794,50.04728],[6.13263,50.04312],[6.13433,50.04012],[6.13393,50.03873],[6.13249,50.03693],[6.13199,50.03465],[6.12962,50.0315],[6.12967,50.02998],[6.13022,50.02934],[6.13491,50.02709],[6.13678,50.02662],[6.13929,50.02537],[6.14342,50.02441],[6.14588,50.02273],[6.14448,50.02056],[6.13742,50.01577],[6.13648,50.01582],[6.13505,50.01645],[6.13245,50.01913],[6.13083,50.01929],[6.12977,50.0188],[6.12994,50.01792],[6.13443,50.01494],[6.13824,50.01119],[6.14012,50.01061],[6.14806,50.01022],[6.14964,50.00888],[6.14939,50.0063],[6.14678,50.00285],[6.14628,50.00005],[6.14528,49.99841],[6.14478,49.99808],[6.14402,49.99811],[6.13971,50.00006],[6.13799,49.99902],[6.13802,49.99822],[6.1395,49.99662],[6.14188,49.99488],[6.14362,49.99469],[6.14671,49.99495],[6.15073,49.99419],[6.15352,49.98942],[6.15725,49.98721],[6.1636,49.98704],[6.16846,49.98573],[6.17159,49.98528],[6.17237,49.9848],[6.17244,49.98411],[6.17001,49.98433],[6.16914,49.98357],[6.16883,49.98112],[6.16716,49.97944],[6.16479,49.97371],[6.16493,49.97055],[6.16726,49.9682],[6.16988,49.96351],[6.17157,49.9625],[6.17559,49.96179],[6.17779,49.95403],[6.17966,49.95293],[6.18204,49.95308],[6.18516,49.95437],[6.18786,49.95596],[6.18822,49.95638],[6.18796,49.95674],[6.18528,49.9575],[6.18391,49.95882],[6.1835,49.96049],[6.18222,49.96227],[6.18177,49.96383],[6.18256,49.96535],[6.18549,49.96778],[6.18834,49.96863],[6.19099,49.96876],[6.19173,49.96841],[6.19274,49.96711],[6.19261,49.96413],[6.19391,49.96103],[6.19399,49.95923],[6.19316,49.95759],[6.1932,49.95674],[6.197,49.95202],[6.19772,49.94987],[6.19756,49.94841],[6.19825,49.94843],[6.19962,49.94951],[6.19967,49.95142],[6.2011,49.95315],[6.2052,49.95519],[6.20845,49.95447],[6.20872,49.95305],[6.21164,49.95023],[6.22391,49.94994],[6.22361,49.94906],[6.22012,49.94719],[6.21842,49.94548],[6.21688,49.94542],[6.2166,49.94443],[6.21995,49.94334],[6.21981,49.94281],[6.22092,49.94238],[6.22121,49.94158],[6.22305,49.94093],[6.22321,49.94034],[6.22475,49.93926],[6.22447,49.93867],[6.22539,49.93873],[6.22732,49.93659],[6.22502,49.9354],[6.22355,49.93413],[6.2239,49.93357],[6.22524,49.93336],[6.22504,49.93273],[6.2243,49.93275],[6.22401,49.93193],[6.2251,49.93136],[6.22617,49.92939],[6.22596,49.92877],[6.22455,49.9278],[6.22389,49.92783],[6.22315,49.92714],[6.21915,49.92561],[6.2185,49.92503],[6.21797,49.92354],[6.21872,49.92261],[6.22185,49.92185],[6.22954,49.92094],[6.23175,49.91852],[6.23382,49.91419],[6.234,49.91279],[6.23127,49.91111],[6.22773,49.91155],[6.22709,49.91127],[6.22702,49.91076],[6.22738,49.91011],[6.23042,49.90827],[6.23188,49.90684],[6.23364,49.90038],[6.23996,49.89625],[6.24672,49.89533],[6.24757,49.8941],[6.24973,49.89228],[6.25048,49.89049],[6.25643,49.88745],[6.25793,49.88595],[6.25922,49.88312],[6.26148,49.88175],[6.26207,49.88093],[6.26917,49.87908],[6.27209,49.87775],[6.27289,49.87709],[6.27352,49.87702],[6.27616,49.87681],[6.28008,49.87877],[6.28197,49.87876],[6.28308,49.87828],[6.28516,49.87602],[6.28656,49.87511],[6.28921,49.87531],[6.29153,49.87457],[6.29192,49.87366],[6.29173,49.87185],[6.29236,49.87022],[6.29384,49.86847],[6.29654,49.86648],[6.29824,49.86623],[6.3006,49.86657],[6.30694,49.86956],[6.30915,49.87001],[6.311,49.86994],[6.31283,49.86849],[6.31434,49.86597],[6.31435,49.86425],[6.31365,49.86219],[6.31454,49.85968],[6.31783,49.85548],[6.32059,49.85396],[6.32251,49.85205],[6.32272,49.85068],[6.32191,49.8473],[6.32023,49.84478],[6.31973,49.84245],[6.32046,49.8397],[6.32264,49.83803],[6.32668,49.83626],[6.32829,49.83607],[6.33173,49.83676],[6.33545,49.83822],[6.33654,49.83891],[6.33793,49.84074],[6.34006,49.8482],[6.34219,49.84911],[6.35025,49.85057],[6.36417,49.85077],[6.36677,49.84943],[6.37283,49.8423],[6.37648,49.84049],[6.37953,49.83748],[6.38186,49.83608],[6.38506,49.83236],[6.38986,49.82896],[6.39298,49.82724],[6.39743,49.82231],[6.40179,49.81989],[6.40507,49.81926],[6.41025,49.81765],[6.42011,49.8162],[6.42426,49.81618],[6.42552,49.81591],[6.42602,49.81527],[6.42645,49.8127],[6.42914,49.81086],[6.43117,49.81045],[6.43199,49.81059],[6.43668,49.81319],[6.4407,49.81425],[6.44186,49.81415],[6.44239,49.81256],[6.44349,49.81163],[6.44732,49.8118],[6.45089,49.81141],[6.4545,49.81154],[6.45665,49.81284],[6.46091,49.81729],[6.46336,49.81912],[6.46972,49.82232],[6.47085,49.82256],[6.47242,49.8223],[6.48,49.81902],[6.48142,49.81784],[6.48416,49.81422],[6.48773,49.81223],[6.48999,49.81162],[6.4924,49.81139],[6.49502,49.81234],[6.49586,49.81235],[6.49997,49.81072],[6.50576,49.80923],[6.50702,49.80782],[6.51012,49.80249],[6.51138,49.80179],[6.5126,49.80195],[6.51395,49.80277],[6.51643,49.80532],[6.51812,49.80838],[6.5183,49.81093],[6.51951,49.81289],[6.52165,49.81317],[6.52542,49.8119],[6.52689,49.81129],[6.52931,49.80939],[6.53068,49.80624],[6.53045,49.80499],[6.52531,49.80133],[6.521,49.79699],[6.51521,49.79442],[6.51086,49.79315],[6.50792,49.79192],[6.50603,49.79013],[6.50593,49.78878],[6.50705,49.78745],[6.50997,49.78592],[6.51472,49.7846],[6.51682,49.78325],[6.51694,49.78236],[6.51632,49.78123],[6.51098,49.77703],[6.50976,49.77416],[6.51027,49.77332],[6.5126,49.77246],[6.51755,49.76874],[6.51811,49.7673],[6.51786,49.765],[6.51862,49.76245],[6.51793,49.761],[6.51566,49.75911],[6.51252,49.75754],[6.50425,49.7552],[6.50166,49.75359],[6.5005,49.75214],[6.50061,49.74861],[6.50267,49.74561],[6.50189,49.74349],[6.50242,49.73931],[6.50163,49.73471],[6.5022,49.73261],[6.50307,49.73148],[6.5072,49.72863],[6.51134,49.72735],[6.51623,49.72506],[6.51715,49.72421],[6.51716,49.7236],[6.51653,49.72276],[6.51425,49.72147],[6.51164,49.72109],[6.51073,49.72134],[6.5055,49.72557],[6.50257,49.72671],[6.49898,49.72676],[6.49729,49.72652],[6.49598,49.72596],[6.49519,49.72531],[6.49509,49.72468],[6.49618,49.72309],[6.49924,49.72082],[6.50651,49.71637],[6.50702,49.71264],[6.50449,49.71297],[6.50249,49.71272],[6.49985,49.71176],[6.4962,49.70968],[6.48037,49.69681],[6.47437,49.69539],[6.47032,49.69364],[6.46789,49.69299],[6.46152,49.69196],[6.45914,49.69079],[6.45805,49.69007],[6.45544,49.68657],[6.44731,49.67825],[6.4405,49.67407],[6.43067,49.66947],[6.42822,49.66687],[6.42609,49.66382],[6.42596,49.66264],[6.4266,49.66124],[6.42892,49.66033],[6.43549,49.66056],[6.43779,49.65993],[6.4397,49.65876],[6.4408,49.65592],[6.44005,49.65357],[6.43785,49.64965],[6.42748,49.63412],[6.42546,49.62881],[6.42321,49.62492],[6.4228,49.62229],[6.42143,49.62005],[6.41857,49.61728],[6.41104,49.61382],[6.40869,49.61119],[6.40552,49.60869],[6.40231,49.60445],[6.39984,49.60272],[6.39528,49.60082],[6.39238,49.60034],[6.38582,49.59988],[6.38089,49.59685],[6.37493,49.59189],[6.37406,49.58982],[6.37418,49.58778],[6.37628,49.585],[6.38189,49.58084],[6.38205,49.57842],[6.38096,49.57718],[6.37831,49.5764],[6.37692,49.57647],[6.37438,49.57728],[6.37149,49.57866],[6.37038,49.5789],[6.36768,49.57864],[6.36126,49.57633],[6.35785,49.57382],[6.35751,49.57226],[6.35777,49.57146],[6.35902,49.5703],[6.3762,49.56163],[6.38006,49.55951],[6.3814,49.55841],[6.38209,49.55759],[6.38233,49.55612],[6.38148,49.55361],[6.38005,49.5511],[6.3825,49.55134],[6.38526,49.54949],[6.38916,49.54822],[6.39147,49.54841],[6.39391,49.54745],[6.39697,49.5481],[6.39956,49.54781],[6.4041,49.54859],[6.40771,49.5475],[6.41091,49.54708],[6.41406,49.54636],[6.41496,49.54566],[6.41432,49.54326],[6.41666,49.54395],[6.41835,49.54401],[6.42087,49.54571],[6.42445,49.54669],[6.42451,49.54766],[6.4303,49.54896],[6.43373,49.54738],[6.43835,49.54626],[6.43886,49.54478],[6.44243,49.54516],[6.44286,49.54388],[6.44406,49.54294],[6.44502,49.54373],[6.4476,49.5426],[6.44932,49.54394],[6.45052,49.54317],[6.44947,49.54204],[6.45101,49.54044],[6.45033,49.53957],[6.45207,49.53828],[6.4568,49.54034],[6.45987,49.54214],[6.46261,49.54287],[6.46361,49.54406],[6.46701,49.54301],[6.46792,49.54437],[6.47154,49.54361],[6.47675,49.54167],[6.47999,49.53993],[6.48183,49.53847],[6.48371,49.53559],[6.48568,49.53377],[6.4873,49.53287],[6.49412,49.53062],[6.49751,49.53111],[6.49929,49.53036],[6.50058,49.53228],[6.50756,49.53527],[6.50955,49.53544],[6.51114,49.53433],[6.51358,49.53513],[6.51493,49.53508],[6.51439,49.53318],[6.51518,49.53108],[6.51486,49.52922],[6.51614,49.52783],[6.51744,49.52755],[6.51958,49.5291],[6.52292,49.52834],[6.52521,49.52944],[6.52789,49.53219],[6.53855,49.53945],[6.54124,49.53842],[6.54479,49.53764],[6.54952,49.53723],[6.55475,49.53596],[6.5564,49.53728],[6.55976,49.53777],[6.5617,49.53982],[6.56396,49.54056],[6.56519,49.53793],[6.5687,49.53766],[6.57179,49.53613],[6.57292,49.53465],[6.57421,49.53444],[6.57829,49.53013],[6.57942,49.52881],[6.5802,49.52483],[6.57973,49.52219],[6.58454,49.51952],[6.58688,49.51929],[6.58843,49.51747],[6.5913,49.51702],[6.59534,49.51881],[6.60358,49.518],[6.60468,49.51726],[6.6085,49.51908],[6.60946,49.51977],[6.61032,49.52108],[6.6104,49.52206],[6.60955,49.524],[6.60702,49.5274],[6.60869,49.52807],[6.61105,49.52836],[6.61278,49.52929],[6.6148,49.52954],[6.61841,49.52945],[6.61966,49.53056],[6.61959,49.53205],[6.61719,49.53476],[6.61697,49.53552],[6.61986,49.53653],[6.62166,49.53662],[6.62455,49.53792],[6.62641,49.53839],[6.62782,49.53832],[6.63088,49.54135],[6.63278,49.5419],[6.63603,49.54193],[6.6411,49.54024],[6.64135,49.53775],[6.6442,49.53903],[6.64595,49.53914],[6.64834,49.54066],[6.65148,49.54396],[6.6513,49.54768],[6.65043,49.54951],[6.65282,49.55094],[6.65549,49.54889],[6.65764,49.54595],[6.65821,49.54395],[6.66411,49.54274],[6.67374,49.54585],[6.67976,49.54703],[6.68235,49.54796],[6.68418,49.54815],[6.68514,49.54679],[6.68502,49.54424],[6.68714,49.542],[6.68764,49.54082],[6.68769,49.5383],[6.68846,49.53615],[6.69045,49.5352],[6.69359,49.53781],[6.69364,49.53955],[6.69805,49.54017],[6.69996,49.5412],[6.7009,49.54226],[6.70166,49.54424],[6.70392,49.54629],[6.70604,49.55028],[6.70858,49.55331],[6.71006,49.55385],[6.72281,49.55623],[6.7283,49.5589],[6.73399,49.56021],[6.73515,49.55853],[6.7379,49.55795],[6.74158,49.55755],[6.74798,49.55791],[6.75688,49.56144],[6.76148,49.5649],[6.76458,49.56776],[6.7675,49.56904],[6.76969,49.56885],[6.77816,49.57022],[6.78712,49.57622],[6.7898,49.57988],[6.79323,49.58138],[6.79821,49.58635],[6.80093,49.58662],[6.80166,49.58807],[6.80573,49.58922],[6.81344,49.592],[6.81977,49.58869],[6.8223,49.58636],[6.82426,49.58841],[6.82556,49.58742],[6.82715,49.58716],[6.83173,49.58536],[6.83289,49.58403],[6.83542,49.58293],[6.83613,49.58413],[6.83885,49.58568],[6.84165,49.58882],[6.84163,49.58954],[6.83912,49.59264],[6.84072,49.59332],[6.84215,49.59289],[6.84298,49.59206],[6.84346,49.59057],[6.84601,49.58962],[6.85398,49.60026],[6.85721,49.60518],[6.86644,49.60866],[6.87061,49.60839],[6.87092,49.60755],[6.87259,49.60689],[6.87206,49.60513],[6.87247,49.60456],[6.874,49.60356],[6.87865,49.60179],[6.87956,49.60117],[6.87996,49.60618],[6.8826,49.60844],[6.88374,49.60855],[6.88981,49.60628],[6.89072,49.60757],[6.88699,49.60922],[6.88666,49.61064],[6.88548,49.61095],[6.88659,49.6132],[6.89145,49.61342],[6.89042,49.61516],[6.89145,49.61629],[6.89309,49.61665],[6.89654,49.61533],[6.89967,49.61463],[6.90632,49.61414],[6.91101,49.61605],[6.91567,49.61661],[6.92143,49.61666],[6.92319,49.61537],[6.92476,49.61502],[6.92579,49.61359],[6.92621,49.6122],[6.92807,49.61263],[6.92958,49.61244],[6.93102,49.61446],[6.92816,49.61529],[6.92844,49.61651],[6.92737,49.61734],[6.92769,49.61829],[6.93359,49.6167],[6.93501,49.61597],[6.93778,49.61774],[6.9353,49.61919],[6.93452,49.62009],[6.93406,49.623],[6.93644,49.62363],[6.93713,49.62454],[6.93705,49.62511],[6.93541,49.62692],[6.93309,49.62852],[6.93287,49.62935],[6.93333,49.63028],[6.93276,49.63103],[6.94092,49.63492],[6.94516,49.63587],[6.94861,49.63513],[6.948,49.63203],[6.94925,49.62866],[6.9494,49.62607],[6.9514,49.62512],[6.9551,49.62655],[6.95501,49.62773],[6.95884,49.63078],[6.96022,49.6291],[6.96432,49.63068],[6.96681,49.63039],[6.96874,49.63199],[6.97233,49.63341],[6.9747,49.6339],[6.97508,49.63541],[6.9784,49.63589],[6.97896,49.63454],[6.97768,49.63271],[6.98754,49.63363],[6.98889,49.63294],[6.98967,49.63475],[6.99153,49.63547],[6.9918,49.63255],[6.98808,49.62981],[6.98769,49.62909],[6.98882,49.6258],[6.98859,49.62525],[6.98598,49.62302],[6.98596,49.62073],[6.9892,49.62294],[6.99215,49.62384],[6.99497,49.6272],[6.99922,49.62932],[7.00102,49.63088],[7.00302,49.63144],[7.00831,49.62948],[7.0124,49.62836],[7.02002,49.63293],[7.0263,49.63848],[7.02798,49.63944],[7.04155,49.63482],[7.05058,49.63214],[7.05601,49.6315],[7.05908,49.63048],[7.06827,49.62377],[7.07288,49.61731],[7.07742,49.61351],[7.07963,49.61208],[7.07979,49.61133],[7.0831,49.60658],[7.08472,49.605],[7.08367,49.60325],[7.08697,49.60224],[7.08686,49.60124],[7.08767,49.59958],[7.08898,49.59942],[7.09299,49.60359],[7.0957,49.60336],[7.09728,49.60269],[7.10064,49.60243],[7.09971,49.60479],[7.10016,49.60568],[7.10198,49.60557],[7.10328,49.60442],[7.10346,49.60225],[7.10459,49.60115],[7.1048,49.59903],[7.10906,49.59845],[7.11024,49.5986],[7.11202,49.59714],[7.11436,49.59767],[7.1184,49.59598],[7.12473,49.59562],[7.12992,49.59589],[7.13436,49.59643],[7.13866,49.59732],[7.14167,49.59828],[7.1437,49.59934],[7.14475,49.60016],[7.14501,49.60161],[7.1461,49.60294],[7.14931,49.60368],[7.15172,49.60371],[7.15434,49.60322],[7.15553,49.60272],[7.15868,49.60039],[7.16242,49.59854],[7.16512,49.59858],[7.16827,49.59763],[7.1696,49.59754],[7.17084,49.59777],[7.17371,49.59907],[7.17499,49.5978],[7.17509,49.59463],[7.17359,49.5912],[7.17284,49.58797],[7.1711,49.58788],[7.17345,49.58508],[7.17539,49.58514],[7.18214,49.58266],[7.18346,49.58078],[7.18675,49.57972],[7.18716,49.57598],[7.18837,49.57566],[7.19031,49.5771],[7.19298,49.57669],[7.19544,49.57677],[7.19678,49.57784],[7.19991,49.57715],[7.2061,49.57754],[7.21,49.57715],[7.21079,49.57632],[7.21401,49.57446],[7.21277,49.57275],[7.21102,49.56907],[7.20976,49.56817],[7.21335,49.56585],[7.2244,49.56483],[7.22828,49.56559],[7.23148,49.56805],[7.23436,49.56754],[7.23796,49.56859],[7.24083,49.56897],[7.24191,49.57103],[7.24093,49.57177],[7.24078,49.57322],[7.2422,49.57388],[7.24542,49.57417],[7.24949,49.57437],[7.25258,49.57399],[7.25373,49.57538],[7.2573,49.57705],[7.25894,49.57851],[7.26029,49.58231],[7.26134,49.58318],[7.2636,49.58417],[7.2687,49.58408],[7.26726,49.58211],[7.26557,49.57858],[7.26279,49.57593],[7.2621,49.57361],[7.26241,49.57191],[7.26376,49.57061],[7.26772,49.56808],[7.26916,49.56501],[7.26748,49.56388],[7.26921,49.56223],[7.27307,49.56227],[7.27486,49.56057],[7.27404,49.55895],[7.27425,49.55508],[7.27331,49.55477],[7.27352,49.55208],[7.27474,49.54961],[7.27662,49.54862],[7.27561,49.5481],[7.2755,49.54515],[7.27633,49.54414],[7.27661,49.54203],[7.27611,49.53742],[7.27714,49.53681],[7.28077,49.53679],[7.28995,49.53463],[7.29973,49.53439],[7.30276,49.53455],[7.30241,49.53396],[7.30066,49.53314],[7.29897,49.53138],[7.29971,49.52956],[7.30085,49.53028],[7.30279,49.52741],[7.30692,49.52614],[7.30987,49.52322],[7.30698,49.52145],[7.30783,49.51995],[7.30105,49.51797],[7.29867,49.51792],[7.29882,49.51913],[7.30236,49.52055],[7.30165,49.52163],[7.29882,49.52062],[7.29711,49.52289],[7.29232,49.52158],[7.29275,49.52033],[7.28951,49.5195],[7.28791,49.51858],[7.28689,49.51712],[7.28569,49.51691],[7.28762,49.51411],[7.28869,49.51321],[7.28792,49.51232],[7.28459,49.5114],[7.28277,49.51051],[7.28316,49.50854],[7.28254,49.50723],[7.28094,49.50552],[7.28543,49.50465],[7.28387,49.50384],[7.28274,49.50195],[7.28289,49.50156],[7.28436,49.50152],[7.28647,49.5009],[7.28707,49.49906],[7.28476,49.49804],[7.28307,49.49546],[7.28278,49.49229],[7.28149,49.48846],[7.27977,49.48711],[7.28192,49.48603],[7.27814,49.48427],[7.2795,49.48375],[7.28274,49.48369],[7.28515,49.48321],[7.29093,49.48306],[7.29275,49.48211],[7.29466,49.48301],[7.29684,49.48355],[7.3012,49.47673],[7.304,49.47556],[7.30492,49.4742],[7.30483,49.47245],[7.30295,49.47137],[7.3006,49.46895],[7.30109,49.46669],[7.29936,49.46595],[7.29756,49.46465],[7.28982,49.46228],[7.28971,49.46136],[7.28627,49.46008],[7.28693,49.45769],[7.27481,49.45566],[7.27327,49.45433],[7.27347,49.45182],[7.27033,49.45125],[7.26825,49.45162],[7.26652,49.45149],[7.25811,49.44877],[7.2527,49.44805],[7.24644,49.44552],[7.24777,49.44395],[7.25273,49.44193],[7.25362,49.44055],[7.25533,49.4406],[7.25241,49.43702],[7.25383,49.43614],[7.25025,49.43518],[7.25259,49.43147],[7.25404,49.42988],[7.25579,49.42971],[7.25584,49.42859],[7.25697,49.4261],[7.26041,49.42619],[7.25961,49.42526],[7.26086,49.42493],[7.26096,49.42362],[7.26538,49.42444],[7.26912,49.42397],[7.27039,49.42474],[7.27279,49.42421],[7.275,49.42202],[7.27885,49.42076],[7.27831,49.42025],[7.27891,49.41927],[7.2824,49.41751],[7.2863,49.4174],[7.28853,49.41644],[7.29007,49.41471],[7.28939,49.41235],[7.29013,49.41115],[7.2926,49.40822],[7.29722,49.40458],[7.29424,49.40101],[7.29894,49.39852],[7.28966,49.39329],[7.29214,49.39285],[7.29019,49.39057],[7.29134,49.39016],[7.29185,49.38871],[7.29676,49.38928],[7.29727,49.38819],[7.29951,49.38797],[7.29939,49.3893],[7.30198,49.38931],[7.30399,49.38875],[7.30297,49.38742],[7.3162,49.38433],[7.31603,49.38274],[7.31775,49.3814],[7.32169,49.38088],[7.3233,49.38021],[7.32941,49.38019],[7.33136,49.37885],[7.33696,49.38054],[7.34069,49.38083],[7.34615,49.38084],[7.35157,49.38045],[7.35582,49.37977],[7.35484,49.37442],[7.3574,49.37495],[7.35912,49.37499],[7.36555,49.37466],[7.36911,49.37398],[7.3685,49.36989],[7.36666,49.3691],[7.36638,49.36341],[7.36993,49.3637],[7.37902,49.36603],[7.3959,49.37205],[7.398,49.37229],[7.39984,49.37174],[7.40132,49.37052],[7.40208,49.36772],[7.39979,49.36632],[7.39538,49.36465],[7.39335,49.36348],[7.39383,49.36212],[7.39776,49.35916],[7.40078,49.35773],[7.40263,49.35621],[7.39946,49.35406],[7.39392,49.35407],[7.39089,49.35344],[7.39149,49.35225],[7.38989,49.34983],[7.39617,49.35051],[7.39867,49.35049],[7.39902,49.3491],[7.39834,49.3479],[7.40112,49.3465],[7.40181,49.34732],[7.40377,49.34612],[7.40268,49.34477],[7.40094,49.34455],[7.40089,49.34323],[7.40259,49.3431],[7.39949,49.33955],[7.39951,49.33838],[7.40053,49.3377],[7.39998,49.33669],[7.39645,49.33597],[7.39689,49.33515],[7.39594,49.33229],[7.39326,49.33038],[7.3938,49.32951],[7.3928,49.32826],[7.38405,49.32184],[7.3818,49.32195],[7.3794,49.32004],[7.37773,49.32039],[7.37772,49.31874],[7.38081,49.31681],[7.38293,49.31885],[7.38554,49.32045],[7.39208,49.32085],[7.39449,49.31635],[7.39445,49.31465],[7.39022,49.31224],[7.38994,49.31126],[7.39144,49.31042],[7.39188,49.3096],[7.38977,49.30974],[7.38749,49.31051],[7.38402,49.30995],[7.38279,49.30797],[7.38073,49.30668],[7.38064,49.30544],[7.38131,49.30375],[7.37959,49.30149],[7.37998,49.2976],[7.38278,49.29464],[7.38543,49.29412],[7.37472,49.28291],[7.3717,49.28091],[7.36901,49.28266],[7.36701,49.28309],[7.36511,49.28149],[7.36588,49.28017],[7.36533,49.27812],[7.35998,49.27926],[7.35496,49.28221],[7.35582,49.28372],[7.34977,49.28221],[7.3477,49.28109],[7.34637,49.28177],[7.34155,49.28146],[7.33666,49.27899],[7.33446,49.27828],[7.33578,49.27627],[7.33975,49.27495],[7.34129,49.27411],[7.34351,49.27428],[7.34419,49.27337],[7.34402,49.27044],[7.34186,49.26689],[7.33962,49.26494],[7.33908,49.26393],[7.33639,49.26239],[7.33309,49.26115],[7.33083,49.25975],[7.32983,49.26062],[7.32486,49.25746],[7.32779,49.25456],[7.32455,49.24814],[7.32262,49.2476],[7.31937,49.24981],[7.3159,49.25149],[7.31424,49.25368],[7.31267,49.25446],[7.31213,49.25514],[7.31219,49.25703],[7.30953,49.25685],[7.30652,49.25614],[7.30721,49.25487],[7.30439,49.25319],[7.30479,49.25212],[7.30293,49.251],[7.30346,49.2455],[7.30149,49.24356],[7.29679,49.24123],[7.29549,49.24024],[7.29206,49.23982],[7.28973,49.23867],[7.28913,49.23782],[7.29131,49.23728],[7.28932,49.23631],[7.2945,49.23471],[7.29252,49.23343],[7.29058,49.23127],[7.28896,49.2306],[7.29425,49.22668],[7.29652,49.22608],[7.30288,49.22326],[7.304,49.22211],[7.30252,49.22204],[7.30198,49.21807],[7.30313,49.21779],[7.30265,49.21649],[7.30142,49.21663],[7.30113,49.21579],[7.29828,49.21402],[7.29841,49.21131],[7.29912,49.21053],[7.30128,49.20948],[7.3,49.20838],[7.29602,49.20667],[7.29576,49.20535],[7.29803,49.20395],[7.30354,49.20577],[7.30444,49.20459],[7.30574,49.20104],[7.31051,49.19813],[7.31513,49.19314],[7.31724,49.19145],[7.31934,49.19051],[7.32121,49.18852],[7.32682,49.18832],[7.33118,49.18718],[7.33184,49.18658],[7.3372,49.18521],[7.33849,49.18443],[7.33532,49.18058],[7.33588,49.17587],[7.33817,49.17402],[7.34312,49.17301],[7.34419,49.17125],[7.34522,49.17087],[7.34502,49.16998],[7.34601,49.16947],[7.34625,49.16713],[7.34755,49.16525],[7.34869,49.1652],[7.34872,49.16406],[7.35015,49.16284],[7.35405,49.16109],[7.36117,49.1613],[7.36267,49.15839],[7.36577,49.16046],[7.36654,49.16191],[7.36876,49.16146],[7.36886,49.1618],[7.36851,49.16249],[7.36627,49.16383],[7.36564,49.1648],[7.36502,49.16716],[7.36514,49.17184],[7.37929,49.17486],[7.44565,49.18415],[7.44473,49.18275],[7.44127,49.18155],[7.44011,49.18086],[7.4376,49.1805],[7.43588,49.17966],[7.43567,49.17866],[7.43634,49.17696],[7.43968,49.17558],[7.4415,49.17342],[7.44171,49.17203],[7.44098,49.17085],[7.44006,49.17029],[7.43288,49.16812],[7.43279,49.16572],[7.43446,49.16477],[7.43698,49.16434],[7.4397,49.16454],[7.44181,49.16539],[7.44433,49.16746],[7.44616,49.16843],[7.44819,49.16875],[7.45181,49.16743],[7.45425,49.16689],[7.45655,49.16492],[7.45771,49.16303],[7.45975,49.16282],[7.46439,49.16427],[7.46628,49.16573],[7.46734,49.1673],[7.47221,49.16852],[7.47736,49.16874],[7.48228,49.16967],[7.49119,49.16939],[7.4912,49.16904],[7.49398,49.16936],[7.49407,49.16859],[7.49252,49.16428],[7.49321,49.16059],[7.49605,49.15507],[7.49761,49.15572],[7.50641,49.15471],[7.50598,49.15052],[7.50219,49.14944],[7.49766,49.1462],[7.49523,49.14359],[7.49664,49.14244],[7.49526,49.14134],[7.48986,49.14228],[7.48908,49.13896],[7.48957,49.13647],[7.49539,49.13576],[7.49666,49.13537],[7.49757,49.13457],[7.49931,49.13241],[7.50107,49.12904],[7.5036,49.12608],[7.50552,49.12237],[7.51167,49.12243],[7.51551,49.12096],[7.51886,49.11647],[7.5201,49.11415],[7.52126,49.11177],[7.52088,49.11004],[7.52198,49.10786],[7.52409,49.10533],[7.52473,49.10511],[7.52453,49.10458],[7.52519,49.10387],[7.52835,49.10361],[7.52946,49.10205],[7.52868,49.09709],[7.5378,49.09641],[7.53569,49.0936],[7.54045,49.0911],[7.54459,49.08844],[7.54979,49.08584],[7.56362,49.08023],[7.56911,49.07952],[7.59309,49.08263],[7.60097,49.08323],[7.60598,49.08126],[7.61024,49.07842],[7.62014,49.07411],[7.62931,49.07355],[7.63082,49.07264],[7.63031,49.07148],[7.6311,49.06909],[7.63056,49.0657],[7.63255,49.0638],[7.63262,49.0586],[7.6312,49.05489],[7.65905,49.04894],[7.67337,49.04509],[7.67632,49.04521],[7.67636,49.04563],[7.68095,49.04895],[7.68405,49.04832],[7.68572,49.04918],[7.69227,49.04889],[7.69762,49.0497],[7.69737,49.05185],[7.69245,49.05412],[7.69425,49.0567],[7.69595,49.0578],[7.69805,49.05588],[7.70082,49.05695],[7.70563,49.05615],[7.70648,49.0555],[7.70824,49.05248],[7.71201,49.05296],[7.71579,49.05389],[7.71772,49.0539],[7.71846,49.05263],[7.72117,49.05127],[7.72279,49.05119],[7.72354,49.05273],[7.7271,49.05495],[7.73143,49.05553],[7.73135,49.05349],[7.73209,49.05157],[7.73156,49.04993],[7.73155,49.04688],[7.73227,49.04396],[7.73582,49.04407],[7.73698,49.04434],[7.74075,49.04731],[7.74696,49.04636],[7.75023,49.04771],[7.75154,49.04786],[7.75262,49.04769],[7.75666,49.04548],[7.76109,49.04552],[7.76535,49.0463],[7.76927,49.04758],[7.77051,49.04941],[7.7702,49.05029],[7.77435,49.0547],[7.7763,49.05649],[7.78002,49.05832],[7.78557,49.05843],[7.78816,49.05797],[7.78943,49.05872],[7.7892,49.05936],[7.79087,49.06027],[7.79153,49.06108],[7.79207,49.06107],[7.7944,49.06569],[7.80195,49.06356],[7.8044,49.06244],[7.81048,49.06126],[7.81136,49.06051],[7.81263,49.05711],[7.81572,49.05496],[7.81869,49.05454],[7.81956,49.05397],[7.82594,49.05219],[7.82612,49.05121],[7.83051,49.04727],[7.83626,49.04728],[7.83808,49.0464],[7.84234,49.04552],[7.84406,49.04472],[7.84372,49.04315],[7.84571,49.04259],[7.8481,49.04292],[7.84986,49.04401],[7.85157,49.04227],[7.85219,49.03775],[7.85465,49.03548],[7.85746,49.03502],[7.86083,49.03495],[7.86337,49.03383],[7.86683,49.03292],[7.8681,49.03314],[7.87148,49.03701],[7.87211,49.03837],[7.87363,49.03928],[7.87446,49.04055],[7.8757,49.04099],[7.87745,49.04253],[7.88031,49.04373],[7.88101,49.04438],[7.88128,49.04605],[7.88447,49.04653],[7.88913,49.04904],[7.89059,49.04891],[7.89263,49.04729],[7.89355,49.04698],[7.89668,49.04617],[7.90095,49.04553],[7.90254,49.04454],[7.90342,49.04491],[7.90615,49.04464],[7.90648,49.04494],[7.91069,49.04511],[7.91038,49.04421],[7.91074,49.04352],[7.91247,49.04204],[7.91312,49.04204],[7.91383,49.04156],[7.91311,49.04011],[7.91435,49.04063],[7.91698,49.04088],[7.91858,49.04154],[7.92066,49.04321],[7.92304,49.04367],[7.92345,49.04406],[7.92434,49.04579],[7.92545,49.0468],[7.92648,49.04985],[7.92884,49.05172],[7.93116,49.05429],[7.93139,49.05498],[7.93095,49.05668],[7.93175,49.05805],[7.93279,49.05806],[7.93565,49.05766],[7.94008,49.05614],[7.94071,49.05421],[7.94287,49.05444],[7.94268,49.05495],[7.94514,49.05541],[7.94623,49.05163],[7.94532,49.04966],[7.94737,49.04955],[7.9473,49.04915],[7.94963,49.04859],[7.94902,49.0472],[7.9531,49.04613],[7.95483,49.04604],[7.95737,49.04488],[7.95686,49.04306],[7.9644,49.04288],[7.96653,49.04154],[7.96734,49.0386],[7.96685,49.0364],[7.96766,49.0358],[7.96916,49.03554],[7.97153,49.03611],[7.97202,49.03589],[7.97243,49.03386],[7.97378,49.03203],[7.97377,49.0315],[7.97255,49.03086],[7.97435,49.02972],[7.97521,49.02961],[7.9745,49.02919],[7.97479,49.0268],[7.97585,49.02669],[7.97825,49.0273],[7.98017,49.02631],[7.98234,49.02593],[7.98427,49.02627],[7.987,49.02769],[7.98813,49.02774],[7.98897,49.02869],[7.99094,49.02834],[7.99403,49.02899],[7.99633,49.02905],[7.99721,49.02826],[8.00056,49.02825],[8.00158,49.02707],[8.0026,49.02664],[8.0036,49.02666],[8.00615,49.026],[8.00808,49.0247],[8.01029,49.0257],[8.01121,49.02552],[8.01155,49.02489],[8.01325,49.02388],[8.01263,49.0224],[8.01317,49.0213],[8.01638,49.02046],[8.01777,49.02046],[8.01829,49.02147],[8.01911,49.02152],[8.01971,49.02088],[8.0209,49.02044],[8.02067,49.01915],[8.02281,49.01809],[8.03102,49.01887],[8.03149,49.01822],[8.03339,49.01835],[8.03442,49.01786],[8.03394,49.01702],[8.0398,49.01535],[8.04169,49.01579],[8.04222,49.01483],[8.04456,49.01477],[8.04512,49.01401],[8.0457,49.01382],[8.04819,49.01439],[8.04898,49.01429],[8.05139,49.01289],[8.05301,49.0109],[8.05481,49.01068],[8.05582,49.0087],[8.05736,49.00742],[8.05869,49.00688],[8.06017,49.00685],[8.06191,49.00595],[8.06393,49.00553],[8.06485,49.00358],[8.06442,49.00111],[8.06508,49.0007],[8.06494,48.99998],[8.06592,48.99949],[8.06735,48.99964],[8.06841,48.99932],[8.06866,48.99775],[8.06998,48.99735],[8.07012,48.9963],[8.07109,48.996],[8.07185,48.99653],[8.07254,48.99655],[8.07477,48.99543],[8.07773,48.9952],[8.07857,48.99411],[8.07923,48.99389],[8.0831,48.99389],[8.0837,48.99316],[8.08552,48.9932],[8.08599,48.99244],[8.08746,48.99162],[8.08722,48.99044],[8.08768,48.98982],[8.0882,48.98986],[8.08847,48.99061],[8.08899,48.99062],[8.08972,48.98992],[8.09179,48.98931],[8.09668,48.98959],[8.09763,48.98886],[8.09824,48.98879],[8.09992,48.98908],[8.10062,48.9899],[8.104,48.98903],[8.10635,48.98908],[8.10639,48.98828],[8.10771,48.98774],[8.10758,48.98702],[8.10817,48.98643],[8.1086,48.9865],[8.10908,48.98725],[8.11026,48.98713],[8.11065,48.9864],[8.11184,48.98685],[8.11314,48.98685],[8.11421,48.98622],[8.11473,48.98623],[8.11531,48.98693],[8.11681,48.98639],[8.11715,48.98565],[8.11852,48.986],[8.1191,48.98578],[8.11953,48.98479],[8.1238,48.98637],[8.12426,48.98586],[8.12403,48.98529],[8.1254,48.98474],[8.126,48.98396],[8.12774,48.98316],[8.12807,48.98263],[8.12859,48.98252],[8.12973,48.98312],[8.13103,48.98318],[8.13287,48.98116],[8.13472,48.98154],[8.13552,48.98101],[8.13565,48.98019],[8.13655,48.97958],[8.1394,48.97904],[8.1399,48.97845],[8.14106,48.97882],[8.14229,48.97836],[8.14419,48.9786],[8.14689,48.97765],[8.14841,48.97749],[8.14996,48.97781],[8.15046,48.97736],[8.15264,48.97709],[8.15351,48.97711],[8.1543,48.97773],[8.15577,48.97787],[8.15619,48.97831],[8.15735,48.97835],[8.15895,48.97774],[8.16021,48.97856],[8.16086,48.97858],[8.16243,48.97755],[8.16442,48.97762],[8.16532,48.97704],[8.16579,48.97714],[8.16606,48.97783],[8.16658,48.97787],[8.16773,48.97741],[8.16842,48.97668],[8.1699,48.97645],[8.17077,48.97658],[8.17056,48.97895],[8.17256,48.97902],[8.177,48.9788],[8.18023,48.97827],[8.18061,48.97759],[8.18469,48.97847],[8.18607,48.97793],[8.18582,48.97764],[8.18711,48.97695],[8.18846,48.97689],[8.18882,48.97653],[8.19034,48.97651],[8.19106,48.97698],[8.19439,48.97713],[8.1962,48.97625],[8.19552,48.9754],[8.19614,48.97484],[8.19594,48.97343],[8.19745,48.9726],[8.19728,48.97183],[8.19596,48.97062],[8.19539,48.96905],[8.19948,48.9669],[8.20363,48.96953],[8.20656,48.97022],[8.20779,48.9701],[8.20902,48.97173],[8.21056,48.97228],[8.21176,48.97339],[8.21513,48.97519],[8.21926,48.97584],[8.2226,48.97593],[8.22511,48.97511],[8.22665,48.97401],[8.22874,48.97123],[8.22953,48.9689],[8.23263,48.96657],[8.23923,48.96926],[8.26128,48.98092],[8.27735,48.98994],[8.28181,48.993],[8.2876,48.99843],[8.2931,49.00585],[8.29737,49.01351],[8.30019,49.02174],[8.30262,49.03523],[8.30414,49.04065],[8.30871,49.04996],[8.31169,49.05431],[8.31644,49.06048],[8.32054,49.06496],[8.32818,49.07156],[8.34591,49.08462],[8.35461,49.09313],[8.35809,49.09778],[8.36037,49.10321],[8.36416,49.11672],[8.37271,49.15198],[8.37202,49.15563],[8.36874,49.16081],[8.36763,49.16425],[8.36843,49.16805],[8.36984,49.17076],[8.38121,49.18569],[8.38295,49.19016],[8.38502,49.1983],[8.38624,49.19826],[8.39313,49.20273],[8.3985,49.20772],[8.40235,49.21367],[8.40525,49.22056],[8.40321,49.22466],[8.39854,49.22575],[8.39375,49.22493],[8.39193,49.22387],[8.38934,49.22061],[8.38718,49.21971],[8.3848,49.21963],[8.38502,49.22261],[8.38638,49.22833],[8.38759,49.23115],[8.39082,49.23609],[8.3953,49.24032],[8.40069,49.24416],[8.40708,49.2472],[8.43162,49.25768],[8.43602,49.25993],[8.4398,49.26235],[8.44555,49.26688],[8.45405,49.27603],[8.45819,49.27911],[8.46518,49.28234],[8.46931,49.28375],[8.47859,49.28546],[8.48226,49.28654],[8.4858,49.28858],[8.48727,49.29003],[8.48907,49.29312],[8.48921,49.29613],[8.48774,49.30046],[8.48621,49.30282],[8.48385,49.30495],[8.4813,49.30669],[8.47622,49.30897],[8.47105,49.31029],[8.46175,49.31212],[8.45857,49.31295],[8.4558,49.31421],[8.45405,49.31546],[8.45198,49.31768],[8.45088,49.32026],[8.45048,49.32314],[8.45157,49.32733],[8.45263,49.32912],[8.45552,49.33209],[8.46301,49.33694],[8.47517,49.34307],[8.48329,49.34859],[8.48927,49.35401],[8.49207,49.35718],[8.49681,49.36418],[8.49976,49.37148],[8.50092,49.37636],[8.50136,49.38358],[8.5004,49.38901],[8.49378,49.3872],[8.48832,49.38384],[8.48375,49.37944],[8.47822,49.3751],[8.47323,49.37336],[8.47154,49.37329],[8.46633,49.37517],[8.46452,49.37639],[8.46354,49.37805],[8.46353,49.38443],[8.46538,49.38725],[8.4735,49.39033],[8.4882,49.39694],[8.49421,49.40021],[8.49619,49.40214],[8.49619,49.40663],[8.49732,49.41135],[8.5017,49.42106],[8.50799,49.43115],[8.50836,49.43278],[8.50783,49.43597],[8.50702,49.4375],[8.50446,49.44014],[8.50262,49.44122],[8.49888,49.44265],[8.49191,49.44372],[8.48796,49.44396],[8.48182,49.44405],[8.46424,49.44316],[8.45553,49.44376],[8.45086,49.44484],[8.44836,49.44586],[8.44499,49.4478],[8.44269,49.45024],[8.44157,49.45294],[8.44157,49.45479],[8.44286,49.45764],[8.44432,49.45919],[8.44731,49.46099],[8.45808,49.46395],[8.46088,49.46502],[8.46239,49.46632],[8.46344,49.46806],[8.4638,49.4704],[8.46294,49.47289],[8.45708,49.4798],[8.45269,49.48379],[8.44534,49.48951],[8.44296,49.4927],[8.4416,49.49587],[8.43974,49.50227],[8.42391,49.5406],[8.42198,49.54357],[8.41726,49.54906],[8.41567,49.55143],[8.41473,49.5539],[8.41414,49.55826],[8.41458,49.56198],[8.41738,49.56727],[8.42107,49.57165],[8.4227,49.57419],[8.4239,49.57784],[8.42387,49.57974],[8.4231,49.58192],[8.41347,49.59724],[8.41147,49.60191],[8.40905,49.60504],[8.40508,49.60843],[8.39606,49.61315],[8.39285,49.61528],[8.38775,49.62138],[8.38601,49.6221],[8.38339,49.62519],[8.38083,49.6293],[8.37576,49.6408],[8.3723,49.65304],[8.36963,49.65917],[8.36309,49.66628],[8.35649,49.67799],[8.35611,49.67972],[8.35727,49.69214],[8.35982,49.69595],[8.36336,49.69864],[8.375,49.70449],[8.38829,49.70928],[8.40137,49.71214],[8.41741,49.71469],[8.42153,49.71569],[8.43073,49.71856],[8.43596,49.72099],[8.43821,49.72232],[8.44264,49.72635],[8.45417,49.74099],[8.46033,49.74576],[8.4774,49.75718],[8.47938,49.75936],[8.47985,49.76176],[8.47856,49.76524],[8.47504,49.76795],[8.47198,49.76889],[8.46655,49.7692],[8.45369,49.7669],[8.4431,49.76572],[8.43266,49.76597],[8.4292,49.76645],[8.42415,49.76792],[8.41925,49.77092],[8.4163,49.77387],[8.41421,49.77712],[8.41355,49.7821],[8.41207,49.78671],[8.40829,49.79352],[8.40608,49.79657],[8.40123,49.80245],[8.39516,49.8085],[8.38259,49.81904],[8.37961,49.82256],[8.37845,49.82482],[8.37774,49.82886],[8.3783,49.83287],[8.3851,49.84822],[8.38519,49.85207],[8.38358,49.85568],[8.37998,49.85898],[8.37456,49.86162],[8.37035,49.86278],[8.36063,49.86374],[8.35752,49.8649],[8.35273,49.86881],[8.34652,49.87482],[8.34401,49.88011],[8.34248,49.88681],[8.34356,49.89287],[8.34476,49.89614],[8.34645,49.89902],[8.35238,49.90592],[8.35362,49.90828],[8.35472,49.91321],[8.3546,49.91584],[8.35344,49.92002],[8.34776,49.93023],[8.34303,49.94051],[8.34216,49.94904],[8.33763,49.9561],[8.3345,49.9607],[8.32944,49.96672],[8.32234,49.97359],[8.30772,49.98411],[8.29021,49.99352],[8.28559,49.99702],[8.27235,50.0103],[8.26455,50.0157],[8.24456,50.02763],[8.2364,50.03013],[8.22947,50.03142],[8.21813,50.03203],[8.20536,50.03413],[8.19645,50.03499],[8.18635,50.03554],[8.18095,50.03521],[8.17027,50.03316],[8.15197,50.02804],[8.14496,50.02641],[8.13149,50.02474],[8.12845,50.02398],[8.11143,50.01893],[8.10596,50.0166],[8.09943,50.01316],[8.09318,50.01071],[8.07957,50.0069],[8.07252,50.00592],[8.05008,50.00487],[8.04599,50.00435],[8.03636,50.00231],[8.03027,50.00015],[8.00426,49.98957],[7.99295,49.98619],[7.9713,49.97866],[7.9674,49.97777],[7.95739,49.97697],[7.95212,49.97623],[7.94694,49.97503],[7.94296,49.97483],[7.93802,49.97393],[7.9354,49.97389],[7.93328,49.9745],[7.92104,49.97437],[7.88726,49.97184],[7.87806,49.97313],[7.87223,49.97571],[7.86606,49.98045],[7.8644,49.98268],[7.86269,49.98824],[7.86131,49.99503],[7.85902,49.99977],[7.85855,50.00233],[7.85873,50.00492],[7.85789,50.00713],[7.85608,50.00942],[7.85056,50.01394],[7.84844,50.015],[7.83336,50.01989],[7.83005,50.02155],[7.82788,50.0228],[7.8087,50.03651],[7.80588,50.03934],[7.80168,50.04054],[7.79221,50.04418],[7.77966,50.05111],[7.77336,50.05687],[7.77249,50.05847],[7.77265,50.06161],[7.774,50.06654],[7.78218,50.06661],[7.78758,50.06928],[7.78653,50.07118],[7.7871,50.07201],[7.7888,50.07312],[7.79363,50.07496],[7.79621,50.07658],[7.79987,50.0805],[7.80064,50.08259],[7.80346,50.08458],[7.80748,50.08422],[7.80852,50.08439],[7.81464,50.08342],[7.81675,50.08068],[7.81863,50.0807],[7.82075,50.08139],[7.82209,50.08401],[7.82718,50.08157],[7.83156,50.08181],[7.83319,50.08317],[7.83448,50.0832],[7.83719,50.08413],[7.83923,50.08748],[7.8351,50.08998],[7.83617,50.09091],[7.83334,50.09227],[7.83675,50.09443],[7.83487,50.09529],[7.83143,50.09275],[7.83006,50.09318],[7.83172,50.09551],[7.8316,50.09772],[7.83007,50.09803],[7.83133,50.0995],[7.83628,50.09933],[7.83725,50.09971],[7.83854,50.10166],[7.83458,50.10371],[7.83548,50.10456],[7.83457,50.1061],[7.83772,50.10732],[7.83754,50.10853],[7.83523,50.11002],[7.83847,50.10995],[7.8412,50.1117],[7.84309,50.11166],[7.84442,50.11563],[7.84492,50.1235],[7.85402,50.12833],[7.85998,50.12763],[7.86045,50.12611],[7.86426,50.12415],[7.86517,50.12322],[7.86539,50.12085],[7.86666,50.12063],[7.8684,50.1209],[7.86933,50.11992],[7.87222,50.11935],[7.87528,50.11945],[7.87871,50.11556],[7.87994,50.1163],[7.88134,50.11668],[7.88263,50.11611],[7.88472,50.11438],[7.88637,50.11481],[7.88671,50.11566],[7.89075,50.11691],[7.89166,50.11824],[7.8964,50.1204],[7.89744,50.12153],[7.90073,50.12225],[7.90322,50.12155],[7.90916,50.1184],[7.91293,50.11548],[7.91976,50.1089],[7.92062,50.10543],[7.92036,50.10368],[7.92316,50.10223],[7.92373,50.10285],[7.92361,50.10351],[7.92801,50.10299],[7.9301,50.10374],[7.92894,50.10444],[7.92645,50.10513],[7.92647,50.10682],[7.92533,50.10885],[7.9253,50.10936],[7.92642,50.11063],[7.92444,50.11294],[7.92458,50.11504],[7.92585,50.11743],[7.92776,50.11914],[7.9251,50.12122],[7.92469,50.1225],[7.92496,50.12422],[7.92317,50.12599],[7.92243,50.13131],[7.92308,50.13292],[7.92249,50.13446],[7.92551,50.13686],[7.92552,50.1387],[7.92777,50.14118],[7.92953,50.14224],[7.93214,50.14284],[7.93294,50.14388],[7.92987,50.14525],[7.92257,50.14651],[7.91964,50.1478],[7.91885,50.14876],[7.91734,50.14916],[7.91686,50.1505],[7.9138,50.15107],[7.91158,50.15228],[7.91124,50.15366],[7.90817,50.15626],[7.90274,50.15846],[7.89238,50.1618],[7.89052,50.16294],[7.88722,50.1663],[7.88499,50.16757],[7.88466,50.16832],[7.88521,50.16915],[7.88401,50.16957],[7.88538,50.17149],[7.88675,50.17212],[7.88659,50.17297],[7.88866,50.17371],[7.88718,50.17637],[7.88503,50.17625],[7.88283,50.18132],[7.88962,50.18397],[7.89071,50.18388],[7.89144,50.18524],[7.89237,50.186],[7.89431,50.18636],[7.89502,50.18726],[7.89755,50.18909],[7.89916,50.18884],[7.90062,50.18985],[7.90233,50.1904],[7.90441,50.19065],[7.9075,50.19186],[7.90794,50.19273],[7.91022,50.19349],[7.91075,50.19434],[7.91251,50.19546],[7.9125,50.19643],[7.91046,50.19849],[7.90773,50.19953],[7.90783,50.20076],[7.90974,50.2021],[7.91114,50.20373],[7.91273,50.20369],[7.91527,50.20589],[7.9208,50.20796],[7.92819,50.20792],[7.93669,50.20938],[7.93894,50.21006],[7.94228,50.20889],[7.9474,50.21007],[7.94691,50.21178],[7.95137,50.21389],[7.95156,50.21426],[7.94809,50.21762],[7.95305,50.2204],[7.95488,50.22],[7.96017,50.22004],[7.96153,50.22069],[7.96446,50.22092],[7.96868,50.2223],[7.97134,50.22248],[7.97241,50.22446],[7.97381,50.22524],[7.97784,50.22498],[7.98083,50.22631],[7.98456,50.22686],[7.98656,50.22809],[7.98887,50.23105],[7.98883,50.23186],[7.98691,50.23305],[7.98676,50.23464],[7.98792,50.23491],[7.98806,50.23724],[7.9886,50.23828],[7.9902,50.23867],[7.99108,50.23645],[7.99444,50.23695],[7.99707,50.2362],[7.99255,50.23232],[7.99352,50.23172],[7.9951,50.23192],[7.99919,50.23043],[8.00002,50.22923],[8.00106,50.22877],[8.00546,50.22912],[8.00637,50.2287],[8.00556,50.22734],[8.00428,50.22672],[8.00271,50.22438],[8.01153,50.22238],[8.01295,50.21963],[8.01177,50.21803],[8.01415,50.21733],[8.0161,50.21716],[8.01991,50.21797],[8.02342,50.21751],[8.0285,50.21566],[8.03058,50.21531],[8.03544,50.21566],[8.03693,50.2189],[8.03651,50.21928],[8.03355,50.21985],[8.03285,50.22032],[8.03287,50.22082],[8.03498,50.22236],[8.03873,50.22406],[8.04078,50.22565],[8.04141,50.22636],[8.03805,50.22693],[8.03972,50.22858],[8.04099,50.22923],[8.04345,50.22959],[8.04418,50.22728],[8.04667,50.22764],[8.05612,50.23375],[8.05742,50.23527],[8.05635,50.2361],[8.05348,50.23702],[8.05169,50.23793],[8.05126,50.23986],[8.05022,50.23977],[8.0484,50.24065],[8.04944,50.24437],[8.04708,50.24415],[8.04409,50.24247],[8.03853,50.2462],[8.03614,50.24509],[8.03498,50.24594],[8.03787,50.24911],[8.03152,50.25596],[8.02494,50.25419],[8.02165,50.25834],[8.02511,50.25993],[8.02559,50.26174],[8.02985,50.26203],[8.02975,50.26326],[8.03577,50.26457],[8.03513,50.26606],[8.03532,50.26889],[8.03638,50.26947],[8.03589,50.27119],[8.04372,50.27268],[8.04492,50.27249],[8.04908,50.27389],[8.05295,50.27413],[8.05304,50.27322],[8.05653,50.27265],[8.05697,50.27371],[8.05933,50.27339],[8.06119,50.27262],[8.06418,50.27339],[8.06519,50.27223],[8.0664,50.27236],[8.06713,50.27199],[8.07209,50.27315],[8.07351,50.27115],[8.07339,50.26974],[8.07471,50.26719],[8.08299,50.2659],[8.08056,50.26218],[8.07903,50.261],[8.08157,50.26076],[8.08367,50.26138],[8.092,50.26525],[8.09445,50.26478],[8.09338,50.26362],[8.10312,50.25979],[8.10679,50.26091],[8.11173,50.26896],[8.11106,50.27072],[8.11243,50.27043],[8.11312,50.27149],[8.12191,50.27723],[8.11978,50.28304],[8.12285,50.28704],[8.12054,50.28924],[8.12278,50.29047],[8.12092,50.2917],[8.11987,50.29308],[8.11945,50.29465],[8.12058,50.29594],[8.1186,50.29968],[8.11723,50.29939],[8.11642,50.30176],[8.11552,50.30283],[8.1111,50.30318],[8.10796,50.30529],[8.10435,50.30701],[8.10389,50.30798],[8.10452,50.30929],[8.10241,50.30983],[8.10539,50.31455],[8.10573,50.31869],[8.10716,50.32157],[8.10566,50.32315],[8.10254,50.32367],[8.10268,50.32702],[8.09748,50.32662],[8.09659,50.32777],[8.09359,50.32809],[8.09407,50.33035],[8.09171,50.33027],[8.08899,50.32949],[8.08221,50.33076],[8.07827,50.32988],[8.07439,50.32944],[8.07384,50.33158],[8.07194,50.33177],[8.07241,50.33253],[8.07144,50.33263],[8.0727,50.33426],[8.07667,50.33587],[8.07609,50.33712],[8.07711,50.33743],[8.07652,50.33879],[8.07722,50.33902],[8.07721,50.34043],[8.07608,50.34152],[8.07692,50.34272],[8.07558,50.34335],[8.07668,50.34438],[8.07573,50.34488],[8.07572,50.34766],[8.07677,50.3484],[8.07511,50.35025],[8.07308,50.35411],[8.07163,50.35372],[8.07042,50.35575],[8.06998,50.35814],[8.06732,50.35776],[8.06589,50.36722],[8.0645,50.36772],[8.05976,50.37531],[8.0584,50.37332],[8.05752,50.3734],[8.051,50.37592],[8.05355,50.37885],[8.05094,50.37952],[8.04864,50.37557],[8.04605,50.37466],[8.04477,50.37581],[8.04781,50.37734],[8.04849,50.37829],[8.04641,50.37866],[8.04256,50.38605],[8.03975,50.38603],[8.04022,50.38475],[8.03816,50.38453],[8.03787,50.38252],[8.03362,50.38175],[8.03051,50.38165],[8.02981,50.38287],[8.02236,50.38215],[8.01753,50.38275],[8.01456,50.38453],[8.0203,50.38614],[8.02098,50.39412],[8.02052,50.39591],[8.02105,50.39875],[8.02308,50.39919],[8.02376,50.40077],[8.014,50.40094],[8.01369,50.39993],[8.00888,50.40064],[8.00749,50.39879],[8.00471,50.39982],[8.00518,50.39864],[7.99709,50.39854],[7.99074,50.39955],[7.98963,50.39817],[7.98715,50.39805],[7.9843,50.39901],[7.98747,50.39956],[7.98964,50.40103],[7.98793,50.40252],[7.98549,50.40551],[7.98442,50.40528],[7.98242,50.4081],[7.97988,50.40739],[7.97833,50.40633],[7.97156,50.40622],[7.97029,50.40698],[7.96938,50.40989],[7.9644,50.41023],[7.96419,50.41223],[7.96617,50.41521],[7.97134,50.41483],[7.97493,50.41422],[7.98124,50.418],[7.98217,50.41986],[7.98159,50.4207],[7.98297,50.42258],[7.98386,50.42586],[7.98567,50.42628],[7.98778,50.42792],[7.98751,50.42949],[7.9861,50.43089],[7.98458,50.4316],[7.98438,50.43231],[7.98516,50.43338],[7.98903,50.43378],[7.9881,50.43551],[7.98282,50.43601],[7.97968,50.43558],[7.97822,50.43435],[7.97512,50.4359],[7.97518,50.43762],[7.98939,50.43973],[7.98885,50.44055],[7.98939,50.44289],[7.99063,50.44394],[8.00102,50.44531],[8.00012,50.44748],[8.00811,50.4488],[8.00752,50.4507],[8.00855,50.45176],[8.01077,50.45269],[8.00952,50.45832],[8.01047,50.46057],[8.00213,50.46214],[7.99962,50.46312],[7.99874,50.46567],[7.9946,50.46834],[7.99511,50.46935],[7.99482,50.4706],[7.9917,50.47224],[7.98767,50.47273],[7.98737,50.47411],[7.98897,50.47546],[7.98651,50.47505],[7.98581,50.47664],[7.98739,50.47853],[7.98748,50.47984],[7.98626,50.47987],[7.98562,50.48258],[7.98206,50.48264],[7.9792,50.48464],[7.98008,50.48557],[7.97898,50.4863],[7.97873,50.4878],[7.98098,50.49063],[7.98038,50.49228],[7.98124,50.49374],[7.9789,50.49538],[7.98297,50.49588],[7.9867,50.49692],[7.98997,50.49857],[7.98851,50.49961],[7.98588,50.50341],[7.98453,50.50802],[7.98466,50.50964],[7.98294,50.51146],[7.984,50.51187],[7.98547,50.5118],[7.98957,50.51306],[7.99076,50.51468],[7.99455,50.51601],[7.99656,50.51723],[7.99568,50.51948],[7.99286,50.52211],[7.9963,50.52451],[7.99923,50.52726],[8.00279,50.52836],[8.00342,50.52956],[8.00465,50.53065],[8.00906,50.52949],[8.01031,50.53069],[8.01108,50.5306],[8.01281,50.53177],[8.01215,50.53241],[8.01454,50.53496],[8.01721,50.53692],[8.01846,50.53648],[8.02494,50.54165],[8.02384,50.54215],[8.02829,50.5445],[8.028,50.54694],[8.02924,50.54963],[8.02856,50.54997],[8.02837,50.55056],[8.03324,50.55122],[8.03397,50.55191],[8.03545,50.55154],[8.03752,50.5515],[8.041,50.55257],[8.04291,50.55382],[8.04161,50.55699],[8.0461,50.55702],[8.04777,50.55498],[8.04774,50.55378],[8.04935,50.5528],[8.05381,50.5526],[8.05428,50.55164],[8.05512,50.5518],[8.05613,50.55099],[8.05722,50.55125],[8.05804,50.55029],[8.06642,50.54893],[8.06701,50.54709],[8.06905,50.54594],[8.07052,50.538],[8.07257,50.5388],[8.07693,50.53918],[8.08003,50.53847],[8.0873,50.53854],[8.09071,50.53539],[8.09261,50.53666],[8.09456,50.53536],[8.09837,50.53512],[8.09882,50.53463],[8.10083,50.53478],[8.10113,50.53385],[8.10343,50.53263],[8.10536,50.53414],[8.10796,50.53428],[8.11503,50.53585],[8.11774,50.53451],[8.12088,50.53966],[8.119,50.53978],[8.11786,50.5388],[8.11585,50.53852],[8.11212,50.54029],[8.11081,50.54186],[8.11117,50.54366],[8.11324,50.54499],[8.11647,50.5453],[8.11881,50.54682],[8.11899,50.54847],[8.12181,50.54884],[8.12622,50.54854],[8.13582,50.55004],[8.13791,50.55095],[8.13419,50.55632],[8.13194,50.55703],[8.13335,50.56182],[8.13513,50.56244],[8.13467,50.56395],[8.13641,50.56447],[8.13613,50.56548],[8.13967,50.56651],[8.14019,50.57201],[8.14174,50.57349],[8.14296,50.57606],[8.14714,50.58211],[8.14695,50.5839],[8.14757,50.58589],[8.15003,50.58908],[8.15216,50.59367],[8.15159,50.59937],[8.14926,50.59937],[8.14751,50.60211],[8.14341,50.60351],[8.12796,50.60772],[8.12602,50.61009],[8.13149,50.61289],[8.13774,50.61822],[8.13534,50.61843],[8.13556,50.61952],[8.13745,50.6195],[8.13868,50.62005],[8.1378,50.6234],[8.14037,50.62436],[8.13975,50.62563],[8.1414,50.62674],[8.13918,50.62954],[8.14088,50.63023],[8.14027,50.63171],[8.13198,50.63689],[8.13098,50.63624],[8.12876,50.6385],[8.1265,50.64147],[8.12749,50.64509],[8.12379,50.6453],[8.1183,50.65079],[8.11396,50.6525],[8.11009,50.65725],[8.10969,50.66516],[8.11023,50.6709],[8.11258,50.67557],[8.11642,50.67613],[8.11882,50.67667],[8.1197,50.67715],[8.12552,50.68284],[8.12578,50.68581],[8.12106,50.68542],[8.12069,50.68829],[8.10982,50.69801],[8.09917,50.70356],[8.08872,50.7036],[8.08248,50.7029],[8.07958,50.70608],[8.07506,50.70485],[8.0711,50.70167],[8.07129,50.70023],[8.06576,50.69981],[8.06421,50.69939],[8.05966,50.69504],[8.04139,50.69666],[8.03969,50.69738],[8.03916,50.69846],[8.04305,50.71172],[8.04285,50.71329],[8.04198,50.71493],[8.04033,50.72566],[8.03628,50.7294],[8.03382,50.73093],[8.02382,50.73512],[8.01917,50.73954],[8.01331,50.74293],[8.00374,50.75115],[8.00126,50.75433],[8.00023,50.75508],[7.98728,50.75952],[7.98613,50.76051],[7.98403,50.76099],[7.98504,50.7619],[7.98298,50.7624],[7.97989,50.7645],[7.97757,50.7678],[7.97339,50.76968],[7.96886,50.77392],[7.96783,50.77886],[7.96594,50.78214],[7.96425,50.78382],[7.9679,50.78428],[7.96898,50.78562],[7.96833,50.78875],[7.9668,50.79194],[7.96731,50.79825],[7.97296,50.80227],[7.97394,50.80417],[7.97378,50.80629],[7.97465,50.81088],[7.97378,50.81395],[7.97196,50.8147],[7.97337,50.81694],[7.97383,50.81869],[7.97597,50.82059],[7.97563,50.82382],[7.97665,50.82493],[7.97406,50.82865],[7.97651,50.83047],[7.97831,50.83331],[7.97743,50.83407],[7.97364,50.83343],[7.97206,50.83454],[7.97015,50.83499],[7.96807,50.83604],[7.96757,50.83771],[7.96838,50.83865],[7.96855,50.83979],[7.96816,50.8417],[7.96698,50.84404],[7.96477,50.84505],[7.96394,50.84603],[7.9605,50.84796],[7.95769,50.84887],[7.9529,50.84601],[7.94931,50.84582],[7.9455,50.84767],[7.9383,50.84838],[7.93602,50.8472],[7.93001,50.84662],[7.92801,50.84606],[7.9271,50.84504],[7.92285,50.84466],[7.92035,50.84483],[7.91864,50.84463],[7.91561,50.84522],[7.91452,50.84663],[7.91348,50.84689],[7.90964,50.84701],[7.90585,50.84811],[7.90435,50.85052],[7.90089,50.8524],[7.89731,50.85747],[7.893,50.85948],[7.89403,50.86094],[7.89394,50.8645],[7.8893,50.86563],[7.8871,50.8654],[7.88568,50.87169],[7.884,50.87398],[7.88246,50.87489],[7.88091,50.87508],[7.87635,50.87479],[7.87283,50.87559],[7.8712,50.87663],[7.86877,50.87756],[7.86215,50.87751],[7.86044,50.87701],[7.85083,50.87771],[7.84815,50.87856],[7.84527,50.87838],[7.83821,50.88051],[7.83309,50.88161],[7.83002,50.88275],[7.82926,50.88239],[7.82777,50.88664],[7.82805,50.88962],[7.8267,50.89084],[7.82982,50.89499],[7.83267,50.89665],[7.83551,50.90329],[7.83324,50.90726],[7.83371,50.90835],[7.83637,50.9092],[7.83624,50.90967],[7.83838,50.91034],[7.84153,50.91602],[7.85075,50.92439],[7.8515,50.92583],[7.8484,50.92989],[7.84653,50.93074],[7.84553,50.93082],[7.84468,50.93039],[7.84077,50.92782],[7.84117,50.92711],[7.83831,50.92629],[7.83763,50.92901],[7.83633,50.92866],[7.83579,50.92956],[7.8282,50.92899],[7.8189,50.9333],[7.81327,50.94003],[7.81241,50.93858],[7.80879,50.9388]]]]}}]}